{"type": "FeatureCollection", "features": [{"type": "Feature", "properties": {"id": "OCT2016_I5_6", "event": "2016-10-30_06:40_Norcia (schematic)", "label": "I 5–6 (debole)", "intensity": 5.5, "inner_km": 120, "outer_km": 170, "scale": "EMS-98 (schematic)"}, "geometry": {"type": "Polygon", "coordinates": [[[15.191333131671534, 42.83], [15.186874696593826, 42.93055286024856], [15.173518483064175, 43.03067513771238], [15.151321684439402, 43.12993809342831], [15.12037935081893, 43.22791666818084], [15.080823982025674, 43.32419130267095], [15.03282496022146, 43.418349734133386], [14.976587824586597, 43.509988761709174], [14.912353391169555, 43.59871597301355], [14.840396721675674, 43.684151424506055], [14.761025945610719, 43.76592926846711], [14.674580940823022, 43.84369931961412], [14.581431878094362, 43.917128554648585], [14.481977636011846, 43.98590253831304], [14.376644092908567, 44.04972676985105], [14.265882303187192, 44.108327944104694], [14.150166565835766, 44.16145512184921], [14.029992393406634, 44.20888080435326], [13.905874390155608, 44.25040190756343], [13.778344048427556, 44.28584063174135], [13.647947472724567, 44.31504522282943], [13.515243041202652, 44.337890622285066], [13.38079901461074, 44.3542790026005], [13.245191102910923, 44.364140186215224], [13.109, 44.3674319460271], [12.972808897089077, 44.364140186215224], [12.83720098538926, 44.3542790026005], [12.702756958797348, 44.337890622285066], [12.570052527275433, 44.31504522282943], [12.439655951572444, 44.28584063174135], [12.312125609844392, 44.25040190756343], [12.188007606593366, 44.20888080435326], [12.067833434164234, 44.16145512184921], [11.952117696812808, 44.108327944104694], [11.841355907091433, 44.04972676985105], [11.736022363988154, 43.98590253831304], [11.636568121905638, 43.917128554648585], [11.543419059176978, 43.84369931961412], [11.456974054389281, 43.76592926846711], [11.377603278324326, 43.684151424506055], [11.305646608830445, 43.59871597301355], [11.241412175413403, 43.509988761709174], [11.18517503977854, 43.418349734133386], [11.137176017974326, 43.32419130267095], [11.09762064918107, 43.22791666818084], [11.066678315560598, 43.12993809342831], [11.044481516935825, 43.03067513771238], [11.031125303406174, 42.93055286024856], [11.026666868328466, 42.83], [11.031125303406174, 42.729447139751436], [11.044481516935825, 42.62932486228762], [11.066678315560598, 42.53006190657169], [11.09762064918107, 42.43208333181916], [11.137176017974326, 42.33580869732905], [11.185175039778539, 42.24165026586661], [11.241412175413403, 42.15001123829082], [11.305646608830445, 42.06128402698645], [11.377603278324324, 41.97584857549394], [11.456974054389281, 41.894070731532885], [11.543419059176978, 41.81630068038588], [11.636568121905638, 41.74287144535141], [11.736022363988154, 41.674097461686955], [11.841355907091433, 41.61027323014895], [11.952117696812808, 41.5516720558953], [12.067833434164232, 41.49854487815079], [12.188007606593366, 41.45111919564674], [12.312125609844392, 41.40959809243657], [12.439655951572444, 41.374159368258645], [12.570052527275433, 41.344954777170564], [12.702756958797346, 41.32210937771493], [12.83720098538926, 41.3057209973995], [12.97280889708908, 41.29585981378477], [13.109, 41.2925680539729], [13.24519110291092, 41.29585981378477], [13.38079901461074, 41.3057209973995], [13.515243041202652, 41.32210937771493], [13.647947472724567, 41.344954777170564], [13.778344048427556, 41.374159368258645], [13.905874390155608, 41.40959809243657], [14.029992393406634, 41.45111919564674], [14.150166565835766, 41.49854487815079], [14.26588230318719, 41.5516720558953], [14.376644092908565, 41.61027323014895], [14.481977636011846, 41.674097461686955], [14.58143187809436, 41.74287144535141], [14.674580940823022, 41.81630068038588], [14.761025945610719, 41.894070731532885], [14.840396721675674, 41.97584857549394], [14.912353391169553, 42.06128402698645], [14.976587824586597, 42.15001123829082], [15.032824960221461, 42.24165026586661], [15.080823982025674, 42.33580869732905], [15.12037935081893, 42.43208333181916], [15.151321684439402, 42.53006190657169], [15.173518483064175, 42.62932486228762], [15.186874696593826, 42.729447139751436], [15.191333131671534, 42.83]], [[14.57888221059167, 42.83], [14.575735079948583, 42.75902151041278], [14.566307164515889, 42.68834696161479], [14.55063883607487, 42.61827899287413], [14.528797188813362, 42.54911764598999], [14.500875752018123, 42.48115908046756], [14.46699408956809, 42.41469430531761], [14.42729728794348, 42.35000793291117], [14.381955334943214, 42.28737696022573], [14.331162391771064, 42.22706958270161], [14.275135961607566, 42.169344045787916], [14.214115958228016, 42.11444753909591], [14.148363678654842, 42.062615137895115], [14.078160684243656, 42.01406879648491], [14.003807594994282, 41.9690163977522], [13.925622802249782, 41.92765086298492], [13.843941105295835, 41.8901493257535], [13.7591122776988, 41.8566723733977], [13.671499569521606, 41.82736335936699], [13.581478151831215, 41.80234778935905], [13.489433510158518, 41.781732783885104], [13.395759793790107, 41.76560661956348], [13.300858127960522, 41.75403835110553], [13.205134896172414, 41.74707751561278], [13.109, 41.74475392045146], [13.012865103827584, 41.74707751561278], [12.917141872039478, 41.75403835110553], [12.822240206209893, 41.76560661956348], [12.728566489841482, 41.781732783885104], [12.636521848168783, 41.80234778935905], [12.546500430478394, 41.82736335936699], [12.4588877223012, 41.8566723733977], [12.374058894704163, 41.8901493257535], [12.292377197750218, 41.92765086298492], [12.214192405005717, 41.9690163977522], [12.139839315756344, 42.01406879648491], [12.069636321345156, 42.062615137895115], [12.003884041771984, 42.11444753909591], [11.942864038392432, 42.169344045787916], [11.886837608228936, 42.22706958270161], [11.836044665056784, 42.28737696022573], [11.79070271205652, 42.35000793291117], [11.75100591043191, 42.41469430531761], [11.717124247981877, 42.48115908046756], [11.689202811186638, 42.549117645989995], [11.667361163925127, 42.61827899287413], [11.651692835484111, 42.68834696161479], [11.642264920051417, 42.75902151041278], [11.63911778940833, 42.83], [11.642264920051417, 42.90097848958722], [11.651692835484111, 42.971653038385206], [11.667361163925127, 43.041721007125865], [11.689202811186638, 43.11088235401], [11.717124247981877, 43.17884091953243], [11.75100591043191, 43.24530569468239], [11.79070271205652, 43.30999206708883], [11.836044665056786, 43.37262303977427], [11.886837608228936, 43.43293041729839], [11.942864038392432, 43.49065595421208], [12.003884041771984, 43.545552460904084], [12.069636321345158, 43.59738486210488], [12.139839315756344, 43.64593120351508], [12.214192405005717, 43.6909836022478], [12.292377197750218, 43.73234913701508], [12.374058894704165, 43.7698506742465], [12.4588877223012, 43.8033276266023], [12.546500430478394, 43.832636640633005], [12.636521848168783, 43.85765221064095], [12.728566489841482, 43.87826721611489], [12.822240206209893, 43.89439338043652], [12.917141872039478, 43.90596164889447], [13.012865103827584, 43.91292248438722], [13.109, 43.91524607954854], [13.205134896172416, 43.91292248438722], [13.300858127960524, 43.90596164889447], [13.395759793790107, 43.89439338043652], [13.489433510158518, 43.87826721611489], [13.581478151831217, 43.85765221064095], [13.671499569521606, 43.832636640633005], [13.7591122776988, 43.8033276266023], [13.843941105295835, 43.7698506742465], [13.925622802249784, 43.73234913701508], [14.003807594994283, 43.6909836022478], [14.078160684243656, 43.64593120351508], [14.148363678654842, 43.59738486210488], [14.214115958228016, 43.545552460904084], [14.275135961607567, 43.49065595421208], [14.331162391771064, 43.43293041729839], [14.381955334943214, 43.37262303977427], [14.42729728794348, 43.30999206708883], [14.46699408956809, 43.245305694682386], [14.500875752018123, 43.17884091953243], [14.528797188813362, 43.11088235401], [14.550638836074873, 43.041721007125865], [14.566307164515889, 42.971653038385206], [14.575735079948583, 42.90097848958722], [14.57888221059167, 42.83]]]}}, {"type": "Feature", "properties": {"id": "OCT2016_I6_7", "event": "2016-10-30_06:40_Norcia (schematic)", "label": "I 6–7 (moderato)", "intensity": 6.5, "inner_km": 90, "outer_km": 120, "scale": "EMS-98 (schematic)"}, "geometry": {"type": "Polygon", "coordinates": [[[14.57888221059167, 42.83], [14.575735079948583, 42.90097848958722], [14.566307164515889, 42.971653038385206], [14.550638836074873, 43.041721007125865], [14.528797188813362, 43.11088235401], [14.500875752018123, 43.17884091953243], [14.46699408956809, 43.245305694682386], [14.42729728794348, 43.30999206708883], [14.381955334943214, 43.37262303977427], [14.331162391771064, 43.43293041729839], [14.275135961607567, 43.49065595421208], [14.214115958228016, 43.545552460904084], [14.148363678654842, 43.59738486210488], [14.078160684243656, 43.64593120351508], [14.003807594994283, 43.6909836022478], [13.925622802249784, 43.73234913701508], [13.843941105295835, 43.7698506742465], [13.7591122776988, 43.8033276266023], [13.671499569521606, 43.832636640633005], [13.581478151831217, 43.85765221064095], [13.489433510158518, 43.87826721611489], [13.395759793790107, 43.89439338043652], [13.300858127960524, 43.90596164889447], [13.205134896172416, 43.91292248438722], [13.109, 43.91524607954854], [13.012865103827584, 43.91292248438722], [12.917141872039478, 43.90596164889447], [12.822240206209893, 43.89439338043652], [12.728566489841482, 43.87826721611489], [12.636521848168783, 43.85765221064095], [12.546500430478394, 43.832636640633005], [12.4588877223012, 43.8033276266023], [12.374058894704165, 43.7698506742465], [12.292377197750218, 43.73234913701508], [12.214192405005717, 43.6909836022478], [12.139839315756344, 43.64593120351508], [12.069636321345158, 43.59738486210488], [12.003884041771984, 43.545552460904084], [11.942864038392432, 43.49065595421208], [11.886837608228936, 43.43293041729839], [11.836044665056786, 43.37262303977427], [11.79070271205652, 43.30999206708883], [11.75100591043191, 43.24530569468239], [11.717124247981877, 43.17884091953243], [11.689202811186638, 43.11088235401], [11.667361163925127, 43.041721007125865], [11.651692835484111, 42.971653038385206], [11.642264920051417, 42.90097848958722], [11.63911778940833, 42.83], [11.642264920051417, 42.75902151041278], [11.651692835484111, 42.68834696161479], [11.667361163925127, 42.61827899287413], [11.689202811186638, 42.549117645989995], [11.717124247981877, 42.48115908046756], [11.75100591043191, 42.41469430531761], [11.79070271205652, 42.35000793291117], [11.836044665056784, 42.28737696022573], [11.886837608228936, 42.22706958270161], [11.942864038392432, 42.169344045787916], [12.003884041771984, 42.11444753909591], [12.069636321345156, 42.062615137895115], [12.139839315756344, 42.01406879648491], [12.214192405005717, 41.9690163977522], [12.292377197750218, 41.92765086298492], [12.374058894704163, 41.8901493257535], [12.4588877223012, 41.8566723733977], [12.546500430478394, 41.82736335936699], [12.636521848168783, 41.80234778935905], [12.728566489841482, 41.781732783885104], [12.822240206209893, 41.76560661956348], [12.917141872039478, 41.75403835110553], [13.012865103827584, 41.74707751561278], [13.109, 41.74475392045146], [13.205134896172414, 41.74707751561278], [13.300858127960522, 41.75403835110553], [13.395759793790107, 41.76560661956348], [13.489433510158518, 41.781732783885104], [13.581478151831215, 41.80234778935905], [13.671499569521606, 41.82736335936699], [13.7591122776988, 41.8566723733977], [13.843941105295835, 41.8901493257535], [13.925622802249782, 41.92765086298492], [14.003807594994282, 41.9690163977522], [14.078160684243656, 42.01406879648491], [14.148363678654842, 42.062615137895115], [14.214115958228016, 42.11444753909591], [14.275135961607566, 42.169344045787916], [14.331162391771064, 42.22706958270161], [14.381955334943214, 42.28737696022573], [14.42729728794348, 42.35000793291117], [14.46699408956809, 42.41469430531761], [14.500875752018123, 42.48115908046756], [14.528797188813362, 42.54911764598999], [14.55063883607487, 42.61827899287413], [14.566307164515889, 42.68834696161479], [14.575735079948583, 42.75902151041278], [14.57888221059167, 42.83]], [[14.211411657943753, 42.83], [14.209051309961437, 42.776766132809584], [14.201980373386917, 42.723760221211094], [14.190229127056154, 42.6712092446556], [14.173847891610022, 42.619338234492496], [14.152906814013592, 42.568369310350676], [14.127495567176068, 42.51852072898821], [14.09772296595761, 42.470005949683376], [14.063716501207411, 42.423032720169296], [14.025621793828298, 42.377802187026205], [13.983601971205674, 42.334508034340935], [13.93783696867101, 42.293335654321936], [13.888522758991133, 42.254461353421334], [13.835870513182742, 42.21805159736368], [13.78010569624571, 42.184262298314145], [13.721467101687336, 42.15323814723869], [13.660205828971877, 42.12511199431512], [13.5965842082741, 42.100004280048275], [13.530874677141204, 42.07802251952524], [13.463358613873412, 42.059260842019285], [13.394325132618889, 42.04379958791383], [13.324069845342581, 42.031704964672606], [13.252893595970392, 42.023028763329144], [13.181101172129312, 42.01780813670958], [13.109, 42.01606544033859], [13.036898827870688, 42.01780813670958], [12.965106404029608, 42.023028763329144], [12.893930154657419, 42.031704964672606], [12.823674867381111, 42.04379958791383], [12.754641386126588, 42.059260842019285], [12.687125322858796, 42.07802251952524], [12.6214157917259, 42.100004280048275], [12.557794171028123, 42.12511199431512], [12.496532898312664, 42.15323814723869], [12.437894303754288, 42.184262298314145], [12.382129486817258, 42.21805159736368], [12.329477241008867, 42.254461353421334], [12.28016303132899, 42.293335654321936], [12.234398028794324, 42.33450803434094], [12.192378206171702, 42.377802187026205], [12.154283498792589, 42.423032720169296], [12.12027703404239, 42.470005949683376], [12.090504432823932, 42.51852072898821], [12.065093185986408, 42.568369310350676], [12.044152108389978, 42.619338234492496], [12.027770872943846, 42.6712092446556], [12.016019626613083, 42.723760221211094], [12.008948690038563, 42.776766132809584], [12.006588342056247, 42.83], [12.008948690038563, 42.88323386719041], [12.016019626613083, 42.93623977878891], [12.027770872943846, 42.9887907553444], [12.044152108389978, 43.0406617655075], [12.065093185986408, 43.09163068964932], [12.090504432823932, 43.14147927101179], [12.12027703404239, 43.18999405031662], [12.154283498792589, 43.2369672798307], [12.192378206171702, 43.28219781297379], [12.234398028794326, 43.32549196565906], [12.28016303132899, 43.36666434567806], [12.329477241008867, 43.40553864657866], [12.382129486817258, 43.441948402636314], [12.437894303754288, 43.47573770168585], [12.496532898312664, 43.50676185276131], [12.557794171028124, 43.53488800568488], [12.6214157917259, 43.55999571995172], [12.687125322858796, 43.581977480474755], [12.754641386126588, 43.60073915798071], [12.823674867381111, 43.616200412086165], [12.893930154657419, 43.62829503532739], [12.965106404029608, 43.63697123667085], [13.036898827870688, 43.642191863290414], [13.109, 43.6439345596614], [13.181101172129312, 43.642191863290414], [13.252893595970392, 43.63697123667085], [13.324069845342581, 43.62829503532739], [13.394325132618889, 43.616200412086165], [13.463358613873412, 43.60073915798071], [13.530874677141204, 43.581977480474755], [13.5965842082741, 43.55999571995172], [13.660205828971877, 43.53488800568488], [13.721467101687336, 43.50676185276131], [13.780105696245712, 43.47573770168585], [13.835870513182742, 43.441948402636314], [13.888522758991133, 43.40553864657866], [13.93783696867101, 43.36666434567806], [13.983601971205676, 43.325491965659054], [14.025621793828298, 43.28219781297379], [14.063716501207411, 43.2369672798307], [14.09772296595761, 43.18999405031662], [14.127495567176068, 43.14147927101179], [14.152906814013592, 43.09163068964932], [14.173847891610022, 43.0406617655075], [14.190229127056154, 42.9887907553444], [14.201980373386917, 42.9362397787889], [14.209051309961437, 42.88323386719041], [14.211411657943753, 42.83]]]}}, {"type": "Feature", "properties": {"id": "OCT2016_I7_8", "event": "2016-10-30_06:40_Norcia (schematic)", "label": "I 7–8 (forte)", "intensity": 7.5, "inner_km": 60, "outer_km": 90, "scale": "EMS-98 (schematic)"}, "geometry": {"type": "Polygon", "coordinates": [[[14.211411657943753, 42.83], [14.209051309961437, 42.88323386719041], [14.201980373386917, 42.9362397787889], [14.190229127056154, 42.9887907553444], [14.173847891610022, 43.0406617655075], [14.152906814013592, 43.09163068964932], [14.127495567176068, 43.14147927101179], [14.09772296595761, 43.18999405031662], [14.063716501207411, 43.2369672798307], [14.025621793828298, 43.28219781297379], [13.983601971205676, 43.325491965659054], [13.93783696867101, 43.36666434567806], [13.888522758991133, 43.40553864657866], [13.835870513182742, 43.441948402636314], [13.780105696245712, 43.47573770168585], [13.721467101687336, 43.50676185276131], [13.660205828971877, 43.53488800568488], [13.5965842082741, 43.55999571995172], [13.530874677141204, 43.581977480474755], [13.463358613873412, 43.60073915798071], [13.394325132618889, 43.616200412086165], [13.324069845342581, 43.62829503532739], [13.252893595970392, 43.63697123667085], [13.181101172129312, 43.642191863290414], [13.109, 43.6439345596614], [13.036898827870688, 43.642191863290414], [12.965106404029608, 43.63697123667085], [12.893930154657419, 43.62829503532739], [12.823674867381111, 43.616200412086165], [12.754641386126588, 43.60073915798071], [12.687125322858796, 43.581977480474755], [12.6214157917259, 43.55999571995172], [12.557794171028124, 43.53488800568488], [12.496532898312664, 43.50676185276131], [12.437894303754288, 43.47573770168585], [12.382129486817258, 43.441948402636314], [12.329477241008867, 43.40553864657866], [12.28016303132899, 43.36666434567806], [12.234398028794326, 43.32549196565906], [12.192378206171702, 43.28219781297379], [12.154283498792589, 43.2369672798307], [12.12027703404239, 43.18999405031662], [12.090504432823932, 43.14147927101179], [12.065093185986408, 43.09163068964932], [12.044152108389978, 43.0406617655075], [12.027770872943846, 42.9887907553444], [12.016019626613083, 42.93623977878891], [12.008948690038563, 42.88323386719041], [12.006588342056247, 42.83], [12.008948690038563, 42.776766132809584], [12.016019626613083, 42.723760221211094], [12.027770872943846, 42.6712092446556], [12.044152108389978, 42.619338234492496], [12.065093185986408, 42.568369310350676], [12.090504432823932, 42.51852072898821], [12.12027703404239, 42.470005949683376], [12.154283498792589, 42.423032720169296], [12.192378206171702, 42.377802187026205], [12.234398028794324, 42.33450803434094], [12.28016303132899, 42.293335654321936], [12.329477241008867, 42.254461353421334], [12.382129486817258, 42.21805159736368], [12.437894303754288, 42.184262298314145], [12.496532898312664, 42.15323814723869], [12.557794171028123, 42.12511199431512], [12.6214157917259, 42.100004280048275], [12.687125322858796, 42.07802251952524], [12.754641386126588, 42.059260842019285], [12.823674867381111, 42.04379958791383], [12.893930154657419, 42.031704964672606], [12.965106404029608, 42.023028763329144], [13.036898827870688, 42.01780813670958], [13.109, 42.01606544033859], [13.181101172129312, 42.01780813670958], [13.252893595970392, 42.023028763329144], [13.324069845342581, 42.031704964672606], [13.394325132618889, 42.04379958791383], [13.463358613873412, 42.059260842019285], [13.530874677141204, 42.07802251952524], [13.5965842082741, 42.100004280048275], [13.660205828971877, 42.12511199431512], [13.721467101687336, 42.15323814723869], [13.78010569624571, 42.184262298314145], [13.835870513182742, 42.21805159736368], [13.888522758991133, 42.254461353421334], [13.93783696867101, 42.293335654321936], [13.983601971205674, 42.334508034340935], [14.025621793828298, 42.377802187026205], [14.063716501207411, 42.423032720169296], [14.09772296595761, 42.470005949683376], [14.127495567176068, 42.51852072898821], [14.152906814013592, 42.568369310350676], [14.173847891610022, 42.619338234492496], [14.190229127056154, 42.6712092446556], [14.201980373386917, 42.723760221211094], [14.209051309961437, 42.776766132809584], [14.211411657943753, 42.83]], [[13.843941105295835, 42.83], [13.84236753997429, 42.79451075520639], [13.837653582257945, 42.75917348080739], [13.829819418037436, 42.72413949643707], [13.818898594406681, 42.689558822995], [13.804937876009062, 42.65557954023378], [13.787997044784046, 42.622347152658804], [13.76814864397174, 42.59000396645558], [13.745477667471608, 42.55868848011286], [13.720081195885532, 42.5285347913508], [13.692067980803783, 42.49967202289396], [13.661557979114008, 42.47222376954796], [13.628681839327422, 42.44630756894755], [13.593580342121829, 42.42203439824245], [13.556403797497142, 42.3995081988761], [13.517311401124891, 42.37882543149246], [13.476470552647918, 42.36007466287675], [13.4340561388494, 42.34333618669885], [13.390249784760803, 42.32868167968349], [13.345239075915607, 42.31617389467952], [13.299216755079259, 42.30586639194255], [13.252379896895054, 42.29780330978174], [13.204929063980261, 42.29201917555276], [13.157067448086208, 42.288538757806386], [13.109, 42.28737696022573], [13.060932551913792, 42.288538757806386], [13.013070936019739, 42.29201917555276], [12.965620103104946, 42.29780330978174], [12.918783244920741, 42.30586639194255], [12.872760924084393, 42.31617389467952], [12.827750215239197, 42.32868167968349], [12.7839438611506, 42.34333618669885], [12.741529447352082, 42.36007466287675], [12.700688598875109, 42.37882543149246], [12.661596202502858, 42.3995081988761], [12.624419657878171, 42.42203439824245], [12.589318160672578, 42.44630756894755], [12.556442020885992, 42.47222376954796], [12.525932019196217, 42.49967202289396], [12.497918804114468, 42.5285347913508], [12.472522332528392, 42.55868848011286], [12.44985135602826, 42.59000396645558], [12.430002955215954, 42.622347152658804], [12.413062123990938, 42.65557954023378], [12.399101405593319, 42.689558822995], [12.388180581962564, 42.72413949643707], [12.380346417742055, 42.75917348080739], [12.37563246002571, 42.79451075520639], [12.374058894704165, 42.83], [12.37563246002571, 42.86548924479361], [12.380346417742055, 42.900826519192606], [12.388180581962564, 42.93586050356293], [12.399101405593319, 42.970441177005], [12.413062123990938, 43.004420459766216], [12.430002955215954, 43.03765284734119], [12.44985135602826, 43.06999603354441], [12.472522332528392, 43.10131151988713], [12.497918804114468, 43.131465208649196], [12.525932019196217, 43.160327977106036], [12.556442020885992, 43.18777623045204], [12.589318160672578, 43.21369243105244], [12.624419657878171, 43.237965601757544], [12.661596202502858, 43.2604918011239], [12.700688598875109, 43.28117456850754], [12.741529447352082, 43.29992533712325], [12.7839438611506, 43.31666381330115], [12.827750215239197, 43.331318320316505], [12.872760924084393, 43.343826105320474], [12.918783244920741, 43.354133608057445], [12.965620103104946, 43.362196690218255], [13.013070936019739, 43.36798082444724], [13.060932551913792, 43.37146124219361], [13.109, 43.37262303977427], [13.157067448086208, 43.37146124219361], [13.204929063980261, 43.36798082444724], [13.252379896895054, 43.362196690218255], [13.299216755079259, 43.354133608057445], [13.345239075915607, 43.343826105320474], [13.390249784760803, 43.331318320316505], [13.4340561388494, 43.31666381330115], [13.476470552647918, 43.29992533712325], [13.517311401124891, 43.28117456850754], [13.556403797497142, 43.2604918011239], [13.593580342121829, 43.237965601757544], [13.628681839327422, 43.21369243105244], [13.661557979114008, 43.18777623045204], [13.692067980803783, 43.160327977106036], [13.720081195885532, 43.131465208649196], [13.745477667471608, 43.10131151988713], [13.76814864397174, 43.06999603354441], [13.787997044784046, 43.03765284734119], [13.804937876009062, 43.004420459766216], [13.818898594406681, 42.970441177005], [13.829819418037436, 42.93586050356293], [13.837653582257945, 42.900826519192606], [13.84236753997429, 42.86548924479361], [13.843941105295835, 42.83]]]}}, {"type": "Feature", "properties": {"id": "OCT2016_I8_9", "event": "2016-10-30_06:40_Norcia (schematic)", "label": "I 8–9 (molto forte)", "intensity": 8.5, "inner_km": 35, "outer_km": 60, "scale": "EMS-98 (schematic)"}, "geometry": {"type": "Polygon", "coordinates": [[[13.843941105295835, 42.83], [13.84236753997429, 42.86548924479361], [13.837653582257945, 42.900826519192606], [13.829819418037436, 42.93586050356293], [13.818898594406681, 42.970441177005], [13.804937876009062, 43.004420459766216], [13.787997044784046, 43.03765284734119], [13.76814864397174, 43.06999603354441], [13.745477667471608, 43.10131151988713], [13.720081195885532, 43.131465208649196], [13.692067980803783, 43.160327977106036], [13.661557979114008, 43.18777623045204], [13.628681839327422, 43.21369243105244], [13.593580342121829, 43.237965601757544], [13.556403797497142, 43.2604918011239], [13.517311401124891, 43.28117456850754], [13.476470552647918, 43.29992533712325], [13.4340561388494, 43.31666381330115], [13.390249784760803, 43.331318320316505], [13.345239075915607, 43.343826105320474], [13.299216755079259, 43.354133608057445], [13.252379896895054, 43.362196690218255], [13.204929063980261, 43.36798082444724], [13.157067448086208, 43.37146124219361], [13.109, 43.37262303977427], [13.060932551913792, 43.37146124219361], [13.013070936019739, 43.36798082444724], [12.965620103104946, 43.362196690218255], [12.918783244920741, 43.354133608057445], [12.872760924084393, 43.343826105320474], [12.827750215239197, 43.331318320316505], [12.7839438611506, 43.31666381330115], [12.741529447352082, 43.29992533712325], [12.700688598875109, 43.28117456850754], [12.661596202502858, 43.2604918011239], [12.624419657878171, 43.237965601757544], [12.589318160672578, 43.21369243105244], [12.556442020885992, 43.18777623045204], [12.525932019196217, 43.160327977106036], [12.497918804114468, 43.131465208649196], [12.472522332528392, 43.10131151988713], [12.44985135602826, 43.06999603354441], [12.430002955215954, 43.03765284734119], [12.413062123990938, 43.004420459766216], [12.399101405593319, 42.970441177005], [12.388180581962564, 42.93586050356293], [12.380346417742055, 42.900826519192606], [12.37563246002571, 42.86548924479361], [12.374058894704165, 42.83], [12.37563246002571, 42.79451075520639], [12.380346417742055, 42.75917348080739], [12.388180581962564, 42.72413949643707], [12.399101405593319, 42.689558822995], [12.413062123990938, 42.65557954023378], [12.430002955215954, 42.622347152658804], [12.44985135602826, 42.59000396645558], [12.472522332528392, 42.55868848011286], [12.497918804114468, 42.5285347913508], [12.525932019196217, 42.49967202289396], [12.556442020885992, 42.47222376954796], [12.589318160672578, 42.44630756894755], [12.624419657878171, 42.42203439824245], [12.661596202502858, 42.3995081988761], [12.700688598875109, 42.37882543149246], [12.741529447352082, 42.36007466287675], [12.7839438611506, 42.34333618669885], [12.827750215239197, 42.32868167968349], [12.872760924084393, 42.31617389467952], [12.918783244920741, 42.30586639194255], [12.965620103104946, 42.29780330978174], [13.013070936019739, 42.29201917555276], [13.060932551913792, 42.288538757806386], [13.109, 42.28737696022573], [13.157067448086208, 42.288538757806386], [13.204929063980261, 42.29201917555276], [13.252379896895054, 42.29780330978174], [13.299216755079259, 42.30586639194255], [13.345239075915607, 42.31617389467952], [13.390249784760803, 42.32868167968349], [13.4340561388494, 42.34333618669885], [13.476470552647918, 42.36007466287675], [13.517311401124891, 42.37882543149246], [13.556403797497142, 42.3995081988761], [13.593580342121829, 42.42203439824245], [13.628681839327422, 42.44630756894755], [13.661557979114008, 42.47222376954796], [13.692067980803783, 42.49967202289396], [13.720081195885532, 42.5285347913508], [13.745477667471608, 42.55868848011286], [13.76814864397174, 42.59000396645558], [13.787997044784046, 42.622347152658804], [13.804937876009062, 42.65557954023378], [13.818898594406681, 42.689558822995], [13.829819418037436, 42.72413949643707], [13.837653582257945, 42.75917348080739], [13.84236753997429, 42.79451075520639], [13.843941105295835, 42.83]], [[13.537715644755904, 42.83], [13.53679773165167, 42.80929794053706], [13.5340479229838, 42.78868453047098], [13.52947799385517, 42.768248039588286], [13.523107513403897, 42.748075980080415], [13.514963761005285, 42.72825473180304], [13.50508160945736, 42.708869172384304], [13.493503375650182, 42.69000231376576], [13.480278639358438, 42.671734946732506], [13.465464030933227, 42.65414529495463], [13.449122988802207, 42.63730868002148], [13.431325487816505, 42.62129719890297], [13.412147739607663, 42.60617941521941], [13.391671866237733, 42.59202006564143], [13.369985548539999, 42.578879782677724], [13.347181650656186, 42.56681483503726], [13.323357822377952, 42.5558768866781], [13.298616080995483, 42.54611277557433], [13.273062374443802, 42.53756431314871], [13.246806127617438, 42.53026810522972], [13.219959773796234, 42.52425539529982], [13.19263827318878, 42.519551930706015], [13.164958620655153, 42.516177852405775], [13.137039344716953, 42.51414760872039], [13.109, 42.51346989346501], [13.080960655283045, 42.51414760872039], [13.053041379344847, 42.516177852405775], [13.025361726811218, 42.519551930706015], [12.998040226203765, 42.52425539529982], [12.971193872382562, 42.53026810522972], [12.944937625556198, 42.53756431314871], [12.919383919004517, 42.54611277557433], [12.894642177622048, 42.5558768866781], [12.870818349343814, 42.56681483503726], [12.848014451460001, 42.578879782677724], [12.826328133762267, 42.59202006564143], [12.805852260392337, 42.60617941521941], [12.786674512183495, 42.62129719890297], [12.768877011197793, 42.63730868002148], [12.752535969066773, 42.65414529495463], [12.737721360641562, 42.671734946732506], [12.724496624349818, 42.69000231376576], [12.71291839054264, 42.708869172384304], [12.703036238994715, 42.72825473180304], [12.694892486596103, 42.748075980080415], [12.68852200614483, 42.768248039588286], [12.6839520770162, 42.78868453047098], [12.68120226834833, 42.80929794053706], [12.680284355244096, 42.83], [12.68120226834833, 42.85070205946294], [12.6839520770162, 42.871315469529016], [12.68852200614483, 42.89175196041171], [12.694892486596103, 42.91192401991958], [12.703036238994715, 42.931745268196956], [12.71291839054264, 42.95113082761569], [12.724496624349818, 42.96999768623424], [12.737721360641562, 42.98826505326749], [12.752535969066773, 43.005854705045365], [12.768877011197793, 43.02269131997852], [12.786674512183495, 43.038702801097024], [12.805852260392337, 43.05382058478059], [12.826328133762267, 43.06797993435857], [12.848014451460001, 43.08112021732227], [12.870818349343814, 43.09318516496273], [12.894642177622048, 43.1041231133219], [12.919383919004517, 43.11388722442567], [12.944937625556198, 43.12243568685129], [12.971193872382562, 43.12973189477027], [12.998040226203765, 43.13574460470018], [13.02536172681122, 43.14044806929398], [13.053041379344847, 43.14382214759422], [13.080960655283045, 43.145852391279604], [13.109, 43.14653010653499], [13.137039344716955, 43.145852391279604], [13.164958620655153, 43.14382214759422], [13.19263827318878, 43.14044806929398], [13.219959773796235, 43.13574460470018], [13.246806127617438, 43.12973189477027], [13.273062374443802, 43.12243568685129], [13.298616080995483, 43.11388722442567], [13.323357822377952, 43.1041231133219], [13.347181650656186, 43.09318516496273], [13.369985548539999, 43.08112021732227], [13.391671866237733, 43.06797993435857], [13.412147739607663, 43.05382058478059], [13.431325487816505, 43.038702801097024], [13.449122988802207, 43.02269131997852], [13.465464030933227, 43.005854705045365], [13.480278639358438, 42.98826505326749], [13.493503375650182, 42.96999768623424], [13.50508160945736, 42.95113082761569], [13.514963761005285, 42.931745268196956], [13.523107513403897, 42.91192401991958], [13.52947799385517, 42.89175196041171], [13.5340479229838, 42.871315469529016], [13.53679773165167, 42.85070205946294], [13.537715644755904, 42.83]]]}}, {"type": "Feature", "properties": {"id": "OCT2016_I9_10", "event": "2016-10-30_06:40_Norcia (schematic)", "label": "I 9–10 (distruttivo)", "intensity": 9.5, "inner_km": 18, "outer_km": 35, "scale": "EMS-98 (schematic)"}, "geometry": {"type": "Polygon", "coordinates": [[[13.537715644755904, 42.83], [13.53679773165167, 42.85070205946294], [13.5340479229838, 42.871315469529016], [13.52947799385517, 42.89175196041171], [13.523107513403897, 42.91192401991958], [13.514963761005285, 42.931745268196956], [13.50508160945736, 42.95113082761569], [13.493503375650182, 42.96999768623424], [13.480278639358438, 42.98826505326749], [13.465464030933227, 43.005854705045365], [13.449122988802207, 43.02269131997852], [13.431325487816505, 43.038702801097024], [13.412147739607663, 43.05382058478059], [13.391671866237733, 43.06797993435857], [13.369985548539999, 43.08112021732227], [13.347181650656186, 43.09318516496273], [13.323357822377952, 43.1041231133219], [13.298616080995483, 43.11388722442567], [13.273062374443802, 43.12243568685129], [13.246806127617438, 43.12973189477027], [13.219959773796235, 43.13574460470018], [13.19263827318878, 43.14044806929398], [13.164958620655153, 43.14382214759422], [13.137039344716955, 43.145852391279604], [13.109, 43.14653010653499], [13.080960655283045, 43.145852391279604], [13.053041379344847, 43.14382214759422], [13.02536172681122, 43.14044806929398], [12.998040226203765, 43.13574460470018], [12.971193872382562, 43.12973189477027], [12.944937625556198, 43.12243568685129], [12.919383919004517, 43.11388722442567], [12.894642177622048, 43.1041231133219], [12.870818349343814, 43.09318516496273], [12.848014451460001, 43.08112021732227], [12.826328133762267, 43.06797993435857], [12.805852260392337, 43.05382058478059], [12.786674512183495, 43.038702801097024], [12.768877011197793, 43.02269131997852], [12.752535969066773, 43.005854705045365], [12.737721360641562, 42.98826505326749], [12.724496624349818, 42.96999768623424], [12.71291839054264, 42.95113082761569], [12.703036238994715, 42.931745268196956], [12.694892486596103, 42.91192401991958], [12.68852200614483, 42.89175196041171], [12.6839520770162, 42.871315469529016], [12.68120226834833, 42.85070205946294], [12.680284355244096, 42.83], [12.68120226834833, 42.80929794053706], [12.6839520770162, 42.78868453047098], [12.68852200614483, 42.768248039588286], [12.694892486596103, 42.748075980080415], [12.703036238994715, 42.72825473180304], [12.71291839054264, 42.708869172384304], [12.724496624349818, 42.69000231376576], [12.737721360641562, 42.671734946732506], [12.752535969066773, 42.65414529495463], [12.768877011197793, 42.63730868002148], [12.786674512183495, 42.62129719890297], [12.805852260392337, 42.60617941521941], [12.826328133762267, 42.59202006564143], [12.848014451460001, 42.578879782677724], [12.870818349343814, 42.56681483503726], [12.894642177622048, 42.5558768866781], [12.919383919004517, 42.54611277557433], [12.944937625556198, 42.53756431314871], [12.971193872382562, 42.53026810522972], [12.998040226203765, 42.52425539529982], [13.025361726811218, 42.519551930706015], [13.053041379344847, 42.516177852405775], [13.080960655283045, 42.51414760872039], [13.109, 42.51346989346501], [13.137039344716953, 42.51414760872039], [13.164958620655153, 42.516177852405775], [13.19263827318878, 42.519551930706015], [13.219959773796234, 42.52425539529982], [13.246806127617438, 42.53026810522972], [13.273062374443802, 42.53756431314871], [13.298616080995483, 42.54611277557433], [13.323357822377952, 42.5558768866781], [13.347181650656186, 42.56681483503726], [13.369985548539999, 42.578879782677724], [13.391671866237733, 42.59202006564143], [13.412147739607663, 42.60617941521941], [13.431325487816505, 42.62129719890297], [13.449122988802207, 42.63730868002148], [13.465464030933227, 42.65414529495463], [13.480278639358438, 42.671734946732506], [13.493503375650182, 42.69000231376576], [13.50508160945736, 42.708869172384304], [13.514963761005285, 42.72825473180304], [13.523107513403897, 42.748075980080415], [13.52947799385517, 42.768248039588286], [13.5340479229838, 42.78868453047098], [13.53679773165167, 42.80929794053706], [13.537715644755904, 42.83]], [[13.32948233158875, 42.83], [13.329010261992288, 42.819353226561915], [13.327596074677384, 42.80875204424222], [13.325245825411232, 42.79824184893112], [13.321969578322005, 42.7878676468985], [13.317781362802718, 42.77767386207013], [13.312699113435214, 42.76770414579764], [13.306744593191523, 42.75800118993667], [13.299943300241482, 42.748606544033855], [13.29232435876566, 42.73956043740524], [13.283920394241134, 42.73090160686819], [13.274767393734201, 42.72266713086439], [13.264904551798226, 42.71489227068427], [13.254374102636548, 42.707610319472735], [13.243221139249142, 42.700852459662826], [13.231493420337467, 42.694647629447736], [13.219241165794376, 42.689022398863024], [13.20651684165482, 42.68400085600965], [13.19337493542824, 42.67960450390505], [13.179871722774683, 42.67585216840386], [13.166065026523778, 42.672759917582766], [13.152013969068516, 42.67034099293452], [13.137778719194078, 42.668605752665826], [13.123420234425863, 42.66756162734192], [13.109, 42.66721308806772], [13.094579765574137, 42.66756162734192], [13.080221280805922, 42.668605752665826], [13.065986030931484, 42.67034099293452], [13.051934973476222, 42.672759917582766], [13.038128277225317, 42.67585216840386], [13.02462506457176, 42.67960450390505], [13.01148315834518, 42.68400085600965], [12.998758834205624, 42.689022398863024], [12.986506579662533, 42.694647629447736], [12.974778860750858, 42.700852459662826], [12.963625897363452, 42.707610319472735], [12.953095448201774, 42.71489227068427], [12.943232606265799, 42.72266713086439], [12.934079605758866, 42.73090160686819], [12.92567564123434, 42.73956043740524], [12.918056699758518, 42.748606544033855], [12.911255406808477, 42.75800118993667], [12.905300886564786, 42.76770414579764], [12.900218637197282, 42.77767386207013], [12.896030421677995, 42.7878676468985], [12.892754174588768, 42.79824184893112], [12.890403925322616, 42.80875204424222], [12.888989738007712, 42.819353226561915], [12.88851766841125, 42.83], [12.888989738007712, 42.84064677343808], [12.890403925322616, 42.85124795575778], [12.892754174588768, 42.86175815106888], [12.896030421677995, 42.8721323531015], [12.900218637197282, 42.882326137929866], [12.905300886564786, 42.89229585420236], [12.911255406808477, 42.901998810063326], [12.918056699758518, 42.91139345596614], [12.92567564123434, 42.92043956259476], [12.934079605758866, 42.92909839313181], [12.943232606265799, 42.93733286913561], [12.953095448201774, 42.94510772931573], [12.963625897363452, 42.95238968052726], [12.974778860750858, 42.95914754033717], [12.986506579662533, 42.96535237055226], [12.998758834205624, 42.97097760113697], [13.01148315834518, 42.97599914399034], [13.02462506457176, 42.98039549609495], [13.038128277225317, 42.98414783159614], [13.051934973476222, 42.98724008241723], [13.065986030931484, 42.98965900706548], [13.080221280805922, 42.99139424733417], [13.094579765574137, 42.99243837265808], [13.109, 42.99278691193228], [13.123420234425863, 42.99243837265808], [13.137778719194078, 42.99139424733417], [13.152013969068516, 42.98965900706548], [13.166065026523778, 42.98724008241723], [13.179871722774683, 42.98414783159614], [13.19337493542824, 42.98039549609495], [13.20651684165482, 42.97599914399034], [13.219241165794376, 42.97097760113697], [13.231493420337467, 42.96535237055226], [13.243221139249142, 42.95914754033717], [13.254374102636548, 42.95238968052726], [13.264904551798226, 42.94510772931573], [13.274767393734201, 42.93733286913561], [13.283920394241134, 42.92909839313181], [13.29232435876566, 42.92043956259476], [13.299943300241482, 42.91139345596614], [13.306744593191523, 42.901998810063326], [13.312699113435214, 42.89229585420236], [13.317781362802718, 42.882326137929866], [13.321969578322005, 42.8721323531015], [13.325245825411232, 42.86175815106888], [13.327596074677384, 42.85124795575778], [13.329010261992288, 42.84064677343808], [13.32948233158875, 42.83]]]}}, {"type": "Feature", "properties": {"id": "OCT2016_I10_11", "event": "2016-10-30_06:40_Norcia (schematic)", "label": "I 10–11 (molto distruttivo)", "intensity": 10.5, "inner_km": 8, "outer_km": 18, "scale": "EMS-98 (schematic)"}, "geometry": {"type": "Polygon", "coordinates": [[[13.32948233158875, 42.83], [13.329010261992288, 42.84064677343808], [13.327596074677384, 42.85124795575778], [13.325245825411232, 42.86175815106888], [13.321969578322005, 42.8721323531015], [13.317781362802718, 42.882326137929866], [13.312699113435214, 42.89229585420236], [13.306744593191523, 42.901998810063326], [13.299943300241482, 42.91139345596614], [13.29232435876566, 42.92043956259476], [13.283920394241134, 42.92909839313181], [13.274767393734201, 42.93733286913561], [13.264904551798226, 42.94510772931573], [13.254374102636548, 42.95238968052726], [13.243221139249142, 42.95914754033717], [13.231493420337467, 42.96535237055226], [13.219241165794376, 42.97097760113697], [13.20651684165482, 42.97599914399034], [13.19337493542824, 42.98039549609495], [13.179871722774683, 42.98414783159614], [13.166065026523778, 42.98724008241723], [13.152013969068516, 42.98965900706548], [13.137778719194078, 42.99139424733417], [13.123420234425863, 42.99243837265808], [13.109, 42.99278691193228], [13.094579765574137, 42.99243837265808], [13.080221280805922, 42.99139424733417], [13.065986030931484, 42.98965900706548], [13.051934973476222, 42.98724008241723], [13.038128277225317, 42.98414783159614], [13.02462506457176, 42.98039549609495], [13.01148315834518, 42.97599914399034], [12.998758834205624, 42.97097760113697], [12.986506579662533, 42.96535237055226], [12.974778860750858, 42.95914754033717], [12.963625897363452, 42.95238968052726], [12.953095448201774, 42.94510772931573], [12.943232606265799, 42.93733286913561], [12.934079605758866, 42.92909839313181], [12.92567564123434, 42.92043956259476], [12.918056699758518, 42.91139345596614], [12.911255406808477, 42.901998810063326], [12.905300886564786, 42.89229585420236], [12.900218637197282, 42.882326137929866], [12.896030421677995, 42.8721323531015], [12.892754174588768, 42.86175815106888], [12.890403925322616, 42.85124795575778], [12.888989738007712, 42.84064677343808], [12.88851766841125, 42.83], [12.888989738007712, 42.819353226561915], [12.890403925322616, 42.80875204424222], [12.892754174588768, 42.79824184893112], [12.896030421677995, 42.7878676468985], [12.900218637197282, 42.77767386207013], [12.905300886564786, 42.76770414579764], [12.911255406808477, 42.75800118993667], [12.918056699758518, 42.748606544033855], [12.92567564123434, 42.73956043740524], [12.934079605758866, 42.73090160686819], [12.943232606265799, 42.72266713086439], [12.953095448201774, 42.71489227068427], [12.963625897363452, 42.707610319472735], [12.974778860750858, 42.700852459662826], [12.986506579662533, 42.694647629447736], [12.998758834205624, 42.689022398863024], [13.01148315834518, 42.68400085600965], [13.02462506457176, 42.67960450390505], [13.038128277225317, 42.67585216840386], [13.051934973476222, 42.672759917582766], [13.065986030931484, 42.67034099293452], [13.080221280805922, 42.668605752665826], [13.094579765574137, 42.66756162734192], [13.109, 42.66721308806772], [13.123420234425863, 42.66756162734192], [13.137778719194078, 42.668605752665826], [13.152013969068516, 42.67034099293452], [13.166065026523778, 42.672759917582766], [13.179871722774683, 42.67585216840386], [13.19337493542824, 42.67960450390505], [13.20651684165482, 42.68400085600965], [13.219241165794376, 42.689022398863024], [13.231493420337467, 42.694647629447736], [13.243221139249142, 42.700852459662826], [13.254374102636548, 42.707610319472735], [13.264904551798226, 42.71489227068427], [13.274767393734201, 42.72266713086439], [13.283920394241134, 42.73090160686819], [13.29232435876566, 42.73956043740524], [13.299943300241482, 42.748606544033855], [13.306744593191523, 42.75800118993667], [13.312699113435214, 42.76770414579764], [13.317781362802718, 42.77767386207013], [13.321969578322005, 42.7878676468985], [13.325245825411232, 42.79824184893112], [13.327596074677384, 42.80875204424222], [13.329010261992288, 42.819353226561915], [13.32948233158875, 42.83]], [[13.206992147372778, 42.83], [13.206782338663238, 42.82526810069418], [13.206153810967725, 42.82055646410765], [13.205109255738325, 42.81588526619161], [13.20365314592089, 42.81127450973266], [13.201791716801209, 42.806743938697835], [13.19953293930454, 42.80231295368784], [13.1968864858629, 42.79800052886074], [13.193863688996215, 42.79382513068171], [13.190477492784737, 42.789804638846775], [13.186742397440504, 42.78595626971919], [13.182674397215202, 42.78229650260639], [13.178290911910322, 42.77884100919301], [13.17361071228291, 42.77560458643232], [13.168653839666286, 42.772601093183475], [13.163441520149986, 42.76984339086566], [13.15799607368639, 42.767343288383564], [13.152340818513252, 42.76511149155984], [13.14649997130144, 42.76315755729113], [13.140498543455415, 42.76148985262393], [13.134362234010569, 42.76011551892567], [13.128117319586007, 42.75904044130423], [13.121790541864035, 42.758269223407034], [13.11540899307816, 42.75780516770752], [13.109, 42.75765026136343], [13.10259100692184, 42.75780516770752], [13.096209458135965, 42.758269223407034], [13.089882680413993, 42.75904044130423], [13.083637765989431, 42.76011551892567], [13.077501456544585, 42.76148985262393], [13.07150002869856, 42.76315755729113], [13.065659181486746, 42.76511149155984], [13.06000392631361, 42.767343288383564], [13.054558479850014, 42.76984339086566], [13.049346160333714, 42.772601093183475], [13.04438928771709, 42.77560458643232], [13.039709088089676, 42.77884100919301], [13.035325602784798, 42.78229650260639], [13.031257602559496, 42.78595626971919], [13.027522507215263, 42.789804638846775], [13.024136311003785, 42.79382513068171], [13.0211135141371, 42.79800052886074], [13.01846706069546, 42.80231295368784], [13.016208283198791, 42.806743938697835], [13.01434685407911, 42.81127450973266], [13.012890744261675, 42.81588526619161], [13.011846189032275, 42.82055646410765], [13.011217661336762, 42.82526810069418], [13.011007852627221, 42.83], [13.011217661336762, 42.834731899305815], [13.011846189032275, 42.83944353589234], [13.012890744261675, 42.84411473380839], [13.01434685407911, 42.848725490267334], [13.016208283198791, 42.85325606130216], [13.01846706069546, 42.85768704631216], [13.0211135141371, 42.86199947113926], [13.024136311003785, 42.866174869318286], [13.027522507215263, 42.87019536115322], [13.031257602559496, 42.8740437302808], [13.035325602784798, 42.877703497393604], [13.039709088089676, 42.88115899080699], [13.04438928771709, 42.884395413567674], [13.049346160333714, 42.88739890681652], [13.054558479850014, 42.89015660913434], [13.06000392631361, 42.89265671161643], [13.065659181486746, 42.894888508440154], [13.07150002869856, 42.896842442708866], [13.077501456544585, 42.898510147376065], [13.083637765989431, 42.899884481074324], [13.089882680413993, 42.90095955869577], [13.096209458135965, 42.90173077659296], [13.10259100692184, 42.90219483229248], [13.109, 42.902349738636566], [13.11540899307816, 42.90219483229248], [13.121790541864035, 42.90173077659296], [13.128117319586007, 42.90095955869577], [13.134362234010569, 42.899884481074324], [13.140498543455415, 42.898510147376065], [13.14649997130144, 42.896842442708866], [13.152340818513254, 42.894888508440154], [13.15799607368639, 42.89265671161643], [13.163441520149986, 42.89015660913434], [13.168653839666286, 42.88739890681652], [13.17361071228291, 42.884395413567674], [13.178290911910324, 42.88115899080699], [13.182674397215202, 42.877703497393604], [13.186742397440504, 42.8740437302808], [13.190477492784737, 42.87019536115322], [13.193863688996215, 42.866174869318286], [13.1968864858629, 42.86199947113926], [13.19953293930454, 42.85768704631216], [13.201791716801209, 42.85325606130216], [13.20365314592089, 42.848725490267334], [13.205109255738325, 42.84411473380839], [13.206153810967725, 42.83944353589234], [13.206782338663238, 42.834731899305815], [13.206992147372778, 42.83]]]}}, {"type": "Feature", "properties": {"id": "OCT2016_I11p", "event": "2016-10-30_06:40_Norcia (schematic)", "label": "I ≥11 (devastante)", "intensity": 11.0, "inner_km": 0, "outer_km": 8, "scale": "EMS-98 (schematic)"}, "geometry": {"type": "Polygon", "coordinates": [[[13.206992147372778, 42.83], [13.206782338663238, 42.834731899305815], [13.206153810967725, 42.83944353589234], [13.205109255738325, 42.84411473380839], [13.20365314592089, 42.848725490267334], [13.201791716801209, 42.85325606130216], [13.19953293930454, 42.85768704631216], [13.1968864858629, 42.86199947113926], [13.193863688996215, 42.866174869318286], [13.190477492784737, 42.87019536115322], [13.186742397440504, 42.8740437302808], [13.182674397215202, 42.877703497393604], [13.178290911910324, 42.88115899080699], [13.17361071228291, 42.884395413567674], [13.168653839666286, 42.88739890681652], [13.163441520149986, 42.89015660913434], [13.15799607368639, 42.89265671161643], [13.152340818513254, 42.894888508440154], [13.14649997130144, 42.896842442708866], [13.140498543455415, 42.898510147376065], [13.134362234010569, 42.899884481074324], [13.128117319586007, 42.90095955869577], [13.121790541864035, 42.90173077659296], [13.11540899307816, 42.90219483229248], [13.109, 42.902349738636566], [13.10259100692184, 42.90219483229248], [13.096209458135965, 42.90173077659296], [13.089882680413993, 42.90095955869577], [13.083637765989431, 42.899884481074324], [13.077501456544585, 42.898510147376065], [13.07150002869856, 42.896842442708866], [13.065659181486746, 42.894888508440154], [13.06000392631361, 42.89265671161643], [13.054558479850014, 42.89015660913434], [13.049346160333714, 42.88739890681652], [13.04438928771709, 42.884395413567674], [13.039709088089676, 42.88115899080699], [13.035325602784798, 42.877703497393604], [13.031257602559496, 42.8740437302808], [13.027522507215263, 42.87019536115322], [13.024136311003785, 42.866174869318286], [13.0211135141371, 42.86199947113926], [13.01846706069546, 42.85768704631216], [13.016208283198791, 42.85325606130216], [13.01434685407911, 42.848725490267334], [13.012890744261675, 42.84411473380839], [13.011846189032275, 42.83944353589234], [13.011217661336762, 42.834731899305815], [13.011007852627221, 42.83], [13.011217661336762, 42.82526810069418], [13.011846189032275, 42.82055646410765], [13.012890744261675, 42.81588526619161], [13.01434685407911, 42.81127450973266], [13.016208283198791, 42.806743938697835], [13.01846706069546, 42.80231295368784], [13.0211135141371, 42.79800052886074], [13.024136311003785, 42.79382513068171], [13.027522507215263, 42.789804638846775], [13.031257602559496, 42.78595626971919], [13.035325602784798, 42.78229650260639], [13.039709088089676, 42.77884100919301], [13.04438928771709, 42.77560458643232], [13.049346160333714, 42.772601093183475], [13.054558479850014, 42.76984339086566], [13.06000392631361, 42.767343288383564], [13.065659181486746, 42.76511149155984], [13.07150002869856, 42.76315755729113], [13.077501456544585, 42.76148985262393], [13.083637765989431, 42.76011551892567], [13.089882680413993, 42.75904044130423], [13.096209458135965, 42.758269223407034], [13.10259100692184, 42.75780516770752], [13.109, 42.75765026136343], [13.11540899307816, 42.75780516770752], [13.121790541864035, 42.758269223407034], [13.128117319586007, 42.75904044130423], [13.134362234010569, 42.76011551892567], [13.140498543455415, 42.76148985262393], [13.14649997130144, 42.76315755729113], [13.152340818513252, 42.76511149155984], [13.15799607368639, 42.767343288383564], [13.163441520149986, 42.76984339086566], [13.168653839666286, 42.772601093183475], [13.17361071228291, 42.77560458643232], [13.178290911910322, 42.77884100919301], [13.182674397215202, 42.78229650260639], [13.186742397440504, 42.78595626971919], [13.190477492784737, 42.789804638846775], [13.193863688996215, 42.79382513068171], [13.1968864858629, 42.79800052886074], [13.19953293930454, 42.80231295368784], [13.201791716801209, 42.806743938697835], [13.20365314592089, 42.81127450973266], [13.205109255738325, 42.81588526619161], [13.206153810967725, 42.82055646410765], [13.206782338663238, 42.82526810069418], [13.206992147372778, 42.83]]]}}]}