{"type": "FeatureCollection", "features": [{"type": "Feature", "properties": {"id": "AUG2016_I5_6", "event": "2016-08-24_01:36_Amatrice/Accumoli (schematic)", "label": "I 5–6 (debole)", "intensity": 5.5, "inner_km": 90, "outer_km": 140, "scale": "EMS-98 (schematic)"}, "geometry": {"type": "Polygon", "coordinates": [[[14.944212630447234, 42.698], [14.940548792850375, 42.78080823785176], [14.92957296917487, 42.86326187811608], [14.91133215958274, 42.94500784164684], [14.885904474021034, 43.02569607967834], [14.85339879774306, 43.104981072787844], [14.813954325045, 43.18252331046279], [14.767739963214574, 43.25799074493697], [14.714953609244096, 43.33106021306998], [14.65582130240518, 43.401418820181455], [14.590596256313864, 43.468765279914095], [14.519557774631043, 43.532811204388096], [14.44301005504131, 43.59328233912237], [14.361280886631764, 43.64991973743427], [14.27472024624883, 43.7024808692891], [14.183698799843656, 43.750740659850926], [14.088606315223617, 43.79449245328759], [13.98984999300672, 43.833548897702684], [13.887852722926041, 43.86774274740518], [13.783051272950976, 43.89692757908111], [13.675894418979727, 43.92097841880071], [13.566841023112017, 43.93979227717594], [13.456358068731136, 43.953288590376886], [13.344918660809395, 43.96140956511842], [13.233, 43.964120426139964], [13.121081339190606, 43.96140956511842], [13.009641931268865, 43.953288590376886], [12.899158976887984, 43.93979227717594], [12.790105581020276, 43.92097841880071], [12.682948727049025, 43.89692757908111], [12.57814727707396, 43.86774274740518], [12.476150006993283, 43.833548897702684], [12.377393684776385, 43.79449245328759], [12.282301200156345, 43.750740659850926], [12.191279753751171, 43.7024808692891], [12.104719113368237, 43.64991973743427], [12.022989944958692, 43.59328233912237], [11.946442225368958, 43.532811204388096], [11.875403743686137, 43.468765279914095], [11.810178697594822, 43.401418820181455], [11.751046390755905, 43.33106021306998], [11.698260036785427, 43.25799074493697], [11.652045674955001, 43.18252331046279], [11.612601202256942, 43.104981072787844], [11.580095525978967, 43.02569607967834], [11.554667840417261, 42.94500784164684], [11.53642703082513, 42.86326187811608], [11.525451207149626, 42.78080823785176], [11.521787369552767, 42.698], [11.525451207149626, 42.61519176214824], [11.53642703082513, 42.532738121883924], [11.554667840417261, 42.45099215835316], [11.580095525978967, 42.37030392032166], [11.612601202256942, 42.29101892721216], [11.652045674955001, 42.21347668953721], [11.698260036785427, 42.13800925506303], [11.751046390755903, 42.06493978693002], [11.810178697594822, 41.994581179818546], [11.875403743686137, 41.927234720085906], [11.946442225368958, 41.863188795611904], [12.022989944958692, 41.80271766087763], [12.104719113368237, 41.746080262565734], [12.191279753751171, 41.693519130710904], [12.282301200156345, 41.645259340149074], [12.377393684776383, 41.60150754671242], [12.476150006993281, 41.56245110229732], [12.57814727707396, 41.52825725259482], [12.682948727049025, 41.49907242091889], [12.790105581020276, 41.47502158119929], [12.899158976887984, 41.45620772282406], [13.009641931268865, 41.442711409623115], [13.121081339190608, 41.43459043488158], [13.233, 41.43187957386004], [13.344918660809393, 41.43459043488158], [13.456358068731136, 41.442711409623115], [13.566841023112017, 41.45620772282406], [13.675894418979725, 41.47502158119929], [13.783051272950976, 41.49907242091889], [13.887852722926041, 41.52825725259482], [13.989849993006718, 41.56245110229732], [14.088606315223617, 41.60150754671241], [14.183698799843656, 41.645259340149074], [14.27472024624883, 41.6935191307109], [14.361280886631764, 41.746080262565734], [14.443010055041308, 41.80271766087763], [14.519557774631043, 41.863188795611904], [14.590596256313864, 41.927234720085906], [14.65582130240518, 41.994581179818546], [14.714953609244096, 42.06493978693002], [14.767739963214574, 42.13800925506303], [14.813954325045, 42.21347668953721], [14.85339879774306, 42.29101892721216], [14.885904474021034, 42.37030392032166], [14.91133215958274, 42.45099215835316], [14.92957296917487, 42.532738121883924], [14.940548792850375, 42.61519176214824], [14.944212630447234, 42.698]], [[14.333065262430365, 42.698], [14.330709938260956, 42.644766132809586], [14.323654051612417, 42.591760221211096], [14.311927816874618, 42.5392092446556], [14.29558144758495, 42.4873382344925], [14.274684941406253, 42.43636931035068], [14.249327780386071, 42.38652072898821], [14.219618547780797, 42.33800594968338], [14.18568446308549, 42.2910327201693], [14.147670837260472, 42.24580218702621], [14.105740450487485, 42.20250803434094], [14.060072855119957, 42.16133565432194], [14.01086360681227, 42.122461353421336], [13.95832342712042, 42.086051597363685], [13.902677301159962, 42.05226229831415], [13.844163514185208, 42.02123814723869], [13.783032631215182, 41.99311199431512], [13.719546424075748, 41.96800428004828], [13.653976750452454, 41.94602251952524], [13.586604389754198, 41.92726084201929], [13.517717840772681, 41.91179958791383], [13.447612086286297, 41.89970496467261], [13.376587329898587, 41.891028763329146], [13.304947710520324, 41.885808136709585], [13.233, 41.884065440338595], [13.161052289479677, 41.885808136709585], [13.089412670101414, 41.891028763329146], [13.018387913713704, 41.89970496467261], [12.94828215922732, 41.91179958791383], [12.879395610245801, 41.92726084201929], [12.812023249547545, 41.94602251952524], [12.746453575924253, 41.96800428004828], [12.682967368784817, 41.99311199431512], [12.621836485814793, 42.02123814723869], [12.563322698840038, 42.05226229831415], [12.50767657287958, 42.086051597363685], [12.45513639318773, 42.122461353421336], [12.405927144880044, 42.16133565432194], [12.360259549512516, 42.202508034340944], [12.318329162739527, 42.24580218702621], [12.28031553691451, 42.2910327201693], [12.246381452219204, 42.33800594968338], [12.21667221961393, 42.38652072898821], [12.191315058593748, 42.43636931035068], [12.17041855241505, 42.4873382344925], [12.154072183125383, 42.5392092446556], [12.142345948387584, 42.591760221211096], [12.135290061739045, 42.644766132809586], [12.132934737569636, 42.698], [12.135290061739045, 42.751233867190415], [12.142345948387584, 42.80423977878891], [12.154072183125383, 42.8567907553444], [12.17041855241505, 42.9086617655075], [12.191315058593748, 42.95963068964932], [12.21667221961393, 43.00947927101179], [12.246381452219204, 43.05799405031662], [12.28031553691451, 43.1049672798307], [12.318329162739529, 43.15019781297379], [12.360259549512516, 43.193491965659064], [12.405927144880046, 43.23466434567806], [12.45513639318773, 43.273538646578665], [12.50767657287958, 43.309948402636316], [12.56332269884004, 43.34373770168585], [12.621836485814793, 43.37476185276131], [12.68296736878482, 43.40288800568488], [12.746453575924253, 43.427995719951724], [12.812023249547545, 43.44997748047476], [12.879395610245803, 43.468739157980714], [12.94828215922732, 43.48420041208617], [13.018387913713704, 43.49629503532739], [13.089412670101414, 43.504971236670855], [13.161052289479676, 43.510191863290416], [13.233, 43.511934559661405], [13.304947710520326, 43.510191863290416], [13.376587329898587, 43.504971236670855], [13.447612086286297, 43.49629503532739], [13.517717840772681, 43.48420041208617], [13.5866043897542, 43.468739157980714], [13.653976750452456, 43.44997748047476], [13.719546424075748, 43.427995719951724], [13.783032631215182, 43.40288800568488], [13.844163514185208, 43.37476185276131], [13.902677301159962, 43.34373770168585], [13.95832342712042, 43.309948402636316], [14.01086360681227, 43.273538646578665], [14.060072855119957, 43.23466434567806], [14.105740450487485, 43.19349196565906], [14.147670837260474, 43.15019781297379], [14.185684463085492, 43.1049672798307], [14.219618547780797, 43.05799405031662], [14.249327780386071, 43.00947927101179], [14.274684941406253, 42.95963068964932], [14.29558144758495, 42.9086617655075], [14.311927816874618, 42.8567907553444], [14.323654051612417, 42.804239778788904], [14.330709938260956, 42.751233867190415], [14.333065262430365, 42.698]]]}}, {"type": "Feature", "properties": {"id": "AUG2016_I6_7", "event": "2016-08-24_01:36_Amatrice/Accumoli (schematic)", "label": "I 6–7 (moderato)", "intensity": 6.5, "inner_km": 60, "outer_km": 90, "scale": "EMS-98 (schematic)"}, "geometry": {"type": "Polygon", "coordinates": [[[14.333065262430365, 42.698], [14.330709938260956, 42.751233867190415], [14.323654051612417, 42.804239778788904], [14.311927816874618, 42.8567907553444], [14.29558144758495, 42.9086617655075], [14.274684941406253, 42.95963068964932], [14.249327780386071, 43.00947927101179], [14.219618547780797, 43.05799405031662], [14.185684463085492, 43.1049672798307], [14.147670837260474, 43.15019781297379], [14.105740450487485, 43.19349196565906], [14.060072855119957, 43.23466434567806], [14.01086360681227, 43.273538646578665], [13.95832342712042, 43.309948402636316], [13.902677301159962, 43.34373770168585], [13.844163514185208, 43.37476185276131], [13.783032631215182, 43.40288800568488], [13.719546424075748, 43.427995719951724], [13.653976750452456, 43.44997748047476], [13.5866043897542, 43.468739157980714], [13.517717840772681, 43.48420041208617], [13.447612086286297, 43.49629503532739], [13.376587329898587, 43.504971236670855], [13.304947710520326, 43.510191863290416], [13.233, 43.511934559661405], [13.161052289479676, 43.510191863290416], [13.089412670101414, 43.504971236670855], [13.018387913713704, 43.49629503532739], [12.94828215922732, 43.48420041208617], [12.879395610245803, 43.468739157980714], [12.812023249547545, 43.44997748047476], [12.746453575924253, 43.427995719951724], [12.68296736878482, 43.40288800568488], [12.621836485814793, 43.37476185276131], [12.56332269884004, 43.34373770168585], [12.50767657287958, 43.309948402636316], [12.45513639318773, 43.273538646578665], [12.405927144880046, 43.23466434567806], [12.360259549512516, 43.193491965659064], [12.318329162739529, 43.15019781297379], [12.28031553691451, 43.1049672798307], [12.246381452219204, 43.05799405031662], [12.21667221961393, 43.00947927101179], [12.191315058593748, 42.95963068964932], [12.17041855241505, 42.9086617655075], [12.154072183125383, 42.8567907553444], [12.142345948387584, 42.80423977878891], [12.135290061739045, 42.751233867190415], [12.132934737569636, 42.698], [12.135290061739045, 42.644766132809586], [12.142345948387584, 42.591760221211096], [12.154072183125383, 42.5392092446556], [12.17041855241505, 42.4873382344925], [12.191315058593748, 42.43636931035068], [12.21667221961393, 42.38652072898821], [12.246381452219204, 42.33800594968338], [12.28031553691451, 42.2910327201693], [12.318329162739527, 42.24580218702621], [12.360259549512516, 42.202508034340944], [12.405927144880044, 42.16133565432194], [12.45513639318773, 42.122461353421336], [12.50767657287958, 42.086051597363685], [12.563322698840038, 42.05226229831415], [12.621836485814793, 42.02123814723869], [12.682967368784817, 41.99311199431512], [12.746453575924253, 41.96800428004828], [12.812023249547545, 41.94602251952524], [12.879395610245801, 41.92726084201929], [12.94828215922732, 41.91179958791383], [13.018387913713704, 41.89970496467261], [13.089412670101414, 41.891028763329146], [13.161052289479677, 41.885808136709585], [13.233, 41.884065440338595], [13.304947710520324, 41.885808136709585], [13.376587329898587, 41.891028763329146], [13.447612086286297, 41.89970496467261], [13.517717840772681, 41.91179958791383], [13.586604389754198, 41.92726084201929], [13.653976750452454, 41.94602251952524], [13.719546424075748, 41.96800428004828], [13.783032631215182, 41.99311199431512], [13.844163514185208, 42.02123814723869], [13.902677301159962, 42.05226229831415], [13.95832342712042, 42.086051597363685], [14.01086360681227, 42.122461353421336], [14.060072855119957, 42.16133565432194], [14.105740450487485, 42.20250803434094], [14.147670837260472, 42.24580218702621], [14.18568446308549, 42.2910327201693], [14.219618547780797, 42.33800594968338], [14.249327780386071, 42.38652072898821], [14.274684941406253, 42.43636931035068], [14.29558144758495, 42.4873382344925], [14.311927816874618, 42.5392092446556], [14.323654051612417, 42.591760221211096], [14.330709938260956, 42.644766132809586], [14.333065262430365, 42.698]], [[13.966376841620244, 42.698], [13.964806625507304, 42.66251075520639], [13.960102701074945, 42.62717348080739], [13.952285211249746, 42.59213949643707], [13.9413876317233, 42.557558822995], [13.927456627604169, 42.52357954023378], [13.910551853590714, 42.490347152658806], [13.890745698520531, 42.458003966455585], [13.868122975390328, 42.426688480112865], [13.842780558173649, 42.3965347913508], [13.814826966991657, 42.36767202289396], [13.784381903413305, 42.34022376954796], [13.751575737874846, 42.314307568947555], [13.716548951413614, 42.290034398242454], [13.679451534106642, 42.2675081988761], [13.640442342790138, 42.24682543149246], [13.599688420810121, 42.22807466287675], [13.557364282717165, 42.21133618669885], [13.513651166968303, 42.19668167968349], [13.468736259836133, 42.184173894679525], [13.422811893848454, 42.17386639194255], [13.376074724190865, 42.165803309781744], [13.328724886599058, 42.16001917555276], [13.280965140346883, 42.15653875780639], [13.233, 42.15537696022573], [13.185034859653118, 42.15653875780639], [13.137275113400943, 42.16001917555276], [13.089925275809136, 42.165803309781744], [13.043188106151547, 42.17386639194255], [12.997263740163868, 42.184173894679525], [12.952348833031698, 42.19668167968349], [12.908635717282836, 42.21133618669885], [12.86631157918988, 42.22807466287675], [12.825557657209862, 42.24682543149246], [12.78654846589336, 42.2675081988761], [12.749451048586387, 42.290034398242454], [12.714424262125155, 42.314307568947555], [12.681618096586696, 42.34022376954796], [12.651173033008345, 42.36767202289396], [12.623219441826352, 42.3965347913508], [12.597877024609673, 42.426688480112865], [12.57525430147947, 42.458003966455585], [12.555448146409287, 42.490347152658806], [12.538543372395832, 42.52357954023378], [12.524612368276701, 42.557558822995], [12.513714788750255, 42.59213949643707], [12.505897298925056, 42.62717348080739], [12.501193374492697, 42.66251075520639], [12.499623158379757, 42.698], [12.501193374492697, 42.73348924479361], [12.505897298925056, 42.76882651919261], [12.513714788750255, 42.80386050356293], [12.524612368276701, 42.838441177005], [12.538543372395832, 42.87242045976622], [12.555448146409287, 42.905652847341194], [12.57525430147947, 42.937996033544415], [12.597877024609673, 42.969311519887135], [12.623219441826352, 42.9994652086492], [12.651173033008345, 43.02832797710604], [12.681618096586696, 43.05577623045204], [12.714424262125155, 43.081692431052446], [12.749451048586387, 43.105965601757546], [12.78654846589336, 43.1284918011239], [12.825557657209862, 43.14917456850754], [12.86631157918988, 43.16792533712325], [12.908635717282836, 43.18466381330115], [12.952348833031698, 43.19931832031651], [12.997263740163868, 43.211826105320476], [13.043188106151547, 43.22213360805745], [13.089925275809136, 43.23019669021826], [13.137275113400943, 43.23598082444724], [13.185034859653118, 43.23946124219361], [13.233, 43.24062303977427], [13.280965140346884, 43.23946124219361], [13.328724886599058, 43.23598082444724], [13.376074724190865, 43.23019669021826], [13.422811893848454, 43.22213360805745], [13.468736259836133, 43.211826105320476], [13.513651166968303, 43.19931832031651], [13.557364282717165, 43.18466381330115], [13.599688420810121, 43.16792533712325], [13.64044234279014, 43.14917456850754], [13.679451534106642, 43.1284918011239], [13.716548951413614, 43.105965601757546], [13.751575737874846, 43.081692431052446], [13.784381903413305, 43.05577623045204], [13.814826966991657, 43.02832797710604], [13.842780558173649, 42.9994652086492], [13.868122975390328, 42.969311519887135], [13.890745698520531, 42.937996033544415], [13.910551853590714, 42.905652847341194], [13.927456627604169, 42.87242045976622], [13.9413876317233, 42.838441177005], [13.952285211249746, 42.80386050356293], [13.960102701074945, 42.76882651919261], [13.964806625507304, 42.73348924479361], [13.966376841620244, 42.698]]]}}, {"type": "Feature", "properties": {"id": "AUG2016_I7_8", "event": "2016-08-24_01:36_Amatrice/Accumoli (schematic)", "label": "I 7–8 (forte)", "intensity": 7.5, "inner_km": 35, "outer_km": 60, "scale": "EMS-98 (schematic)"}, "geometry": {"type": "Polygon", "coordinates": [[[13.966376841620244, 42.698], [13.964806625507304, 42.73348924479361], [13.960102701074945, 42.76882651919261], [13.952285211249746, 42.80386050356293], [13.9413876317233, 42.838441177005], [13.927456627604169, 42.87242045976622], [13.910551853590714, 42.905652847341194], [13.890745698520531, 42.937996033544415], [13.868122975390328, 42.969311519887135], [13.842780558173649, 42.9994652086492], [13.814826966991657, 43.02832797710604], [13.784381903413305, 43.05577623045204], [13.751575737874846, 43.081692431052446], [13.716548951413614, 43.105965601757546], [13.679451534106642, 43.1284918011239], [13.64044234279014, 43.14917456850754], [13.599688420810121, 43.16792533712325], [13.557364282717165, 43.18466381330115], [13.513651166968303, 43.19931832031651], [13.468736259836133, 43.211826105320476], [13.422811893848454, 43.22213360805745], [13.376074724190865, 43.23019669021826], [13.328724886599058, 43.23598082444724], [13.280965140346884, 43.23946124219361], [13.233, 43.24062303977427], [13.185034859653118, 43.23946124219361], [13.137275113400943, 43.23598082444724], [13.089925275809136, 43.23019669021826], [13.043188106151547, 43.22213360805745], [12.997263740163868, 43.211826105320476], [12.952348833031698, 43.19931832031651], [12.908635717282836, 43.18466381330115], [12.86631157918988, 43.16792533712325], [12.825557657209862, 43.14917456850754], [12.78654846589336, 43.1284918011239], [12.749451048586387, 43.105965601757546], [12.714424262125155, 43.081692431052446], [12.681618096586696, 43.05577623045204], [12.651173033008345, 43.02832797710604], [12.623219441826352, 42.9994652086492], [12.597877024609673, 42.969311519887135], [12.57525430147947, 42.937996033544415], [12.555448146409287, 42.905652847341194], [12.538543372395832, 42.87242045976622], [12.524612368276701, 42.838441177005], [12.513714788750255, 42.80386050356293], [12.505897298925056, 42.76882651919261], [12.501193374492697, 42.73348924479361], [12.499623158379757, 42.698], [12.501193374492697, 42.66251075520639], [12.505897298925056, 42.62717348080739], [12.513714788750255, 42.59213949643707], [12.524612368276701, 42.557558822995], [12.538543372395832, 42.52357954023378], [12.555448146409287, 42.490347152658806], [12.57525430147947, 42.458003966455585], [12.597877024609673, 42.426688480112865], [12.623219441826352, 42.3965347913508], [12.651173033008345, 42.36767202289396], [12.681618096586696, 42.34022376954796], [12.714424262125155, 42.314307568947555], [12.749451048586387, 42.290034398242454], [12.78654846589336, 42.2675081988761], [12.825557657209862, 42.24682543149246], [12.86631157918988, 42.22807466287675], [12.908635717282836, 42.21133618669885], [12.952348833031698, 42.19668167968349], [12.997263740163868, 42.184173894679525], [13.043188106151547, 42.17386639194255], [13.089925275809136, 42.165803309781744], [13.137275113400943, 42.16001917555276], [13.185034859653118, 42.15653875780639], [13.233, 42.15537696022573], [13.280965140346883, 42.15653875780639], [13.328724886599058, 42.16001917555276], [13.376074724190865, 42.165803309781744], [13.422811893848454, 42.17386639194255], [13.468736259836133, 42.184173894679525], [13.513651166968303, 42.19668167968349], [13.557364282717165, 42.21133618669885], [13.599688420810121, 42.22807466287675], [13.640442342790138, 42.24682543149246], [13.679451534106642, 42.2675081988761], [13.716548951413614, 42.290034398242454], [13.751575737874846, 42.314307568947555], [13.784381903413305, 42.34022376954796], [13.814826966991657, 42.36767202289396], [13.842780558173649, 42.3965347913508], [13.868122975390328, 42.426688480112865], [13.890745698520531, 42.458003966455585], [13.910551853590714, 42.490347152658806], [13.927456627604169, 42.52357954023378], [13.9413876317233, 42.557558822995], [13.952285211249746, 42.59213949643707], [13.960102701074945, 42.62717348080739], [13.964806625507304, 42.66251075520639], [13.966376841620244, 42.698]], [[13.66080315761181, 42.698], [13.659887198212594, 42.67729794053706], [13.657143242293719, 42.65668453047098], [13.652583039895685, 42.63624803958829], [13.64622611850526, 42.61607598008042], [13.638099699435765, 42.59625473180304], [13.62823858126125, 42.576869172384306], [13.616684990803645, 42.55800231376576], [13.603488402311024, 42.53973494673251], [13.588705325601294, 42.52214529495463], [13.572399064078466, 42.50530868002148], [13.554639443657761, 42.489297198902975], [13.535502513760328, 42.47417941521941], [13.515070221657941, 42.46002006564143], [13.493430061562208, 42.446879782677726], [13.470674699960915, 42.434814835037265], [13.446901578805905, 42.4238768866781], [13.42221249825168, 42.41411277557433], [13.39671318073151, 42.40556431314871], [13.370512818237744, 42.398268105229725], [13.343723604744932, 42.39225539529982], [13.316460255778004, 42.38755193070602], [13.288839517182785, 42.38417785240578], [13.260979665202349, 42.382147608720395], [13.233, 42.38146989346501], [13.205020334797652, 42.382147608720395], [13.177160482817216, 42.38417785240578], [13.149539744221997, 42.38755193070602], [13.122276395255069, 42.39225539529982], [13.095487181762257, 42.398268105229725], [13.069286819268491, 42.40556431314871], [13.043787501748321, 42.41411277557433], [13.019098421194096, 42.4238768866781], [12.995325300039086, 42.434814835037265], [12.972569938437793, 42.446879782677726], [12.95092977834206, 42.46002006564143], [12.930497486239673, 42.47417941521941], [12.91136055634224, 42.489297198902975], [12.893600935921535, 42.50530868002148], [12.877294674398705, 42.52214529495463], [12.862511597688977, 42.53973494673251], [12.849315009196356, 42.55800231376576], [12.83776141873875, 42.576869172384306], [12.827900300564236, 42.59625473180304], [12.819773881494742, 42.61607598008042], [12.813416960104316, 42.63624803958829], [12.808856757706282, 42.65668453047098], [12.806112801787407, 42.67729794053706], [12.805196842388192, 42.698], [12.806112801787407, 42.71870205946294], [12.808856757706282, 42.73931546952902], [12.813416960104316, 42.75975196041171], [12.819773881494742, 42.779924019919584], [12.827900300564236, 42.79974526819696], [12.83776141873875, 42.819130827615695], [12.849315009196358, 42.83799768623424], [12.862511597688977, 42.85626505326749], [12.877294674398705, 42.87385470504537], [12.893600935921535, 42.89069131997852], [12.91136055634224, 42.906702801097026], [12.930497486239673, 42.92182058478059], [12.95092977834206, 42.93597993435857], [12.972569938437793, 42.949120217322275], [12.995325300039086, 42.961185164962735], [13.019098421194096, 42.9721231133219], [13.043787501748321, 42.98188722442567], [13.069286819268491, 42.99043568685129], [13.095487181762257, 42.997731894770276], [13.122276395255069, 43.00374460470018], [13.149539744221997, 43.00844806929398], [13.177160482817216, 43.01182214759422], [13.205020334797652, 43.013852391279606], [13.233, 43.01453010653499], [13.260979665202349, 43.013852391279606], [13.288839517182785, 43.01182214759422], [13.316460255778004, 43.00844806929398], [13.343723604744932, 43.00374460470018], [13.370512818237744, 42.997731894770276], [13.396713180731512, 42.99043568685129], [13.42221249825168, 42.98188722442567], [13.446901578805905, 42.9721231133219], [13.470674699960915, 42.961185164962735], [13.493430061562208, 42.949120217322275], [13.515070221657941, 42.93597993435857], [13.535502513760328, 42.92182058478059], [13.554639443657761, 42.906702801097026], [13.572399064078466, 42.89069131997852], [13.588705325601296, 42.87385470504537], [13.603488402311024, 42.85626505326749], [13.616684990803645, 42.83799768623424], [13.62823858126125, 42.819130827615695], [13.638099699435765, 42.79974526819696], [13.64622611850526, 42.779924019919584], [13.652583039895685, 42.75975196041171], [13.657143242293719, 42.73931546952902], [13.659887198212594, 42.71870205946294], [13.66080315761181, 42.698]]]}}, {"type": "Feature", "properties": {"id": "AUG2016_I8_9", "event": "2016-08-24_01:36_Amatrice/Accumoli (schematic)", "label": "I 8–9 (molto forte)", "intensity": 8.5, "inner_km": 20, "outer_km": 35, "scale": "EMS-98 (schematic)"}, "geometry": {"type": "Polygon", "coordinates": [[[13.66080315761181, 42.698], [13.659887198212594, 42.71870205946294], [13.657143242293719, 42.73931546952902], [13.652583039895685, 42.75975196041171], [13.64622611850526, 42.779924019919584], [13.638099699435765, 42.79974526819696], [13.62823858126125, 42.819130827615695], [13.616684990803645, 42.83799768623424], [13.603488402311024, 42.85626505326749], [13.588705325601296, 42.87385470504537], [13.572399064078466, 42.89069131997852], [13.554639443657761, 42.906702801097026], [13.535502513760328, 42.92182058478059], [13.515070221657941, 42.93597993435857], [13.493430061562208, 42.949120217322275], [13.470674699960915, 42.961185164962735], [13.446901578805905, 42.9721231133219], [13.42221249825168, 42.98188722442567], [13.396713180731512, 42.99043568685129], [13.370512818237744, 42.997731894770276], [13.343723604744932, 43.00374460470018], [13.316460255778004, 43.00844806929398], [13.288839517182785, 43.01182214759422], [13.260979665202349, 43.013852391279606], [13.233, 43.01453010653499], [13.205020334797652, 43.013852391279606], [13.177160482817216, 43.01182214759422], [13.149539744221997, 43.00844806929398], [13.122276395255069, 43.00374460470018], [13.095487181762257, 42.997731894770276], [13.069286819268491, 42.99043568685129], [13.043787501748321, 42.98188722442567], [13.019098421194096, 42.9721231133219], [12.995325300039086, 42.961185164962735], [12.972569938437793, 42.949120217322275], [12.95092977834206, 42.93597993435857], [12.930497486239673, 42.92182058478059], [12.91136055634224, 42.906702801097026], [12.893600935921535, 42.89069131997852], [12.877294674398705, 42.87385470504537], [12.862511597688977, 42.85626505326749], [12.849315009196358, 42.83799768623424], [12.83776141873875, 42.819130827615695], [12.827900300564236, 42.79974526819696], [12.819773881494742, 42.779924019919584], [12.813416960104316, 42.75975196041171], [12.808856757706282, 42.73931546952902], [12.806112801787407, 42.71870205946294], [12.805196842388192, 42.698], [12.806112801787407, 42.67729794053706], [12.808856757706282, 42.65668453047098], [12.813416960104316, 42.63624803958829], [12.819773881494742, 42.61607598008042], [12.827900300564236, 42.59625473180304], [12.83776141873875, 42.576869172384306], [12.849315009196356, 42.55800231376576], [12.862511597688977, 42.53973494673251], [12.877294674398705, 42.52214529495463], [12.893600935921535, 42.50530868002148], [12.91136055634224, 42.489297198902975], [12.930497486239673, 42.47417941521941], [12.95092977834206, 42.46002006564143], [12.972569938437793, 42.446879782677726], [12.995325300039086, 42.434814835037265], [13.019098421194096, 42.4238768866781], [13.043787501748321, 42.41411277557433], [13.069286819268491, 42.40556431314871], [13.095487181762257, 42.398268105229725], [13.122276395255069, 42.39225539529982], [13.149539744221997, 42.38755193070602], [13.177160482817216, 42.38417785240578], [13.205020334797652, 42.382147608720395], [13.233, 42.38146989346501], [13.260979665202349, 42.382147608720395], [13.288839517182785, 42.38417785240578], [13.316460255778004, 42.38755193070602], [13.343723604744932, 42.39225539529982], [13.370512818237744, 42.398268105229725], [13.39671318073151, 42.40556431314871], [13.42221249825168, 42.41411277557433], [13.446901578805905, 42.4238768866781], [13.470674699960915, 42.434814835037265], [13.493430061562208, 42.446879782677726], [13.515070221657941, 42.46002006564143], [13.535502513760328, 42.47417941521941], [13.554639443657761, 42.489297198902975], [13.572399064078466, 42.50530868002148], [13.588705325601294, 42.52214529495463], [13.603488402311024, 42.53973494673251], [13.616684990803645, 42.55800231376576], [13.62823858126125, 42.576869172384306], [13.638099699435765, 42.59625473180304], [13.64622611850526, 42.61607598008042], [13.652583039895685, 42.63624803958829], [13.657143242293719, 42.65668453047098], [13.659887198212594, 42.67729794053706], [13.66080315761181, 42.698]], [[13.477458947206749, 42.698], [13.476935541835768, 42.68617025173546], [13.475367567024982, 42.67439116026913], [13.47276173708325, 42.662713165479026], [13.469129210574433, 42.651186274331664], [13.464485542534723, 42.63985984674459], [13.458850617863572, 42.628782384219605], [13.45224856617351, 42.61800132215186], [13.444707658463443, 42.60756282670429], [13.436260186057883, 42.597511597116934], [13.426942322330552, 42.58789067429799], [13.416793967804436, 42.57874125651599], [13.405858579291616, 42.570102522982516], [13.394182983804539, 42.56201146608082], [13.381817178035547, 42.5545027329587], [13.36881411426338, 42.547608477164154], [13.355229473603375, 42.54135822095892], [13.34112142757239, 42.535778728899615], [13.326550388989435, 42.530893893227834], [13.311578753278711, 42.526724631559844], [13.296270631282818, 42.52328879731419], [13.28069157473029, 42.52060110326058], [13.26490829553302, 42.518673058517585], [13.248988380115629, 42.517512919268796], [13.233, 42.51712565340858], [13.217011619884373, 42.517512919268796], [13.20109170446698, 42.518673058517585], [13.185308425269712, 42.52060110326058], [13.169729368717183, 42.52328879731419], [13.15442124672129, 42.526724631559844], [13.139449611010566, 42.530893893227834], [13.124878572427612, 42.535778728899615], [13.110770526396626, 42.54135822095892], [13.097185885736621, 42.547608477164154], [13.084182821964454, 42.5545027329587], [13.071817016195462, 42.56201146608082], [13.060141420708385, 42.570102522982516], [13.049206032195565, 42.57874125651599], [13.03905767766945, 42.58789067429799], [13.029739813942118, 42.597511597116934], [13.021292341536558, 42.60756282670429], [13.01375143382649, 42.61800132215186], [13.00714938213643, 42.628782384219605], [13.001514457465278, 42.63985984674459], [12.996870789425568, 42.651186274331664], [12.993238262916751, 42.662713165479026], [12.99063243297502, 42.67439116026913], [12.989064458164233, 42.68617025173546], [12.988541052793252, 42.698], [12.989064458164233, 42.70982974826454], [12.99063243297502, 42.72160883973087], [12.993238262916751, 42.733286834520975], [12.996870789425568, 42.74481372566834], [13.001514457465278, 42.75614015325541], [13.00714938213643, 42.767217615780396], [13.01375143382649, 42.77799867784814], [13.021292341536558, 42.78843717329571], [13.029739813942118, 42.798488402883066], [13.03905767766945, 42.80810932570201], [13.049206032195565, 42.81725874348401], [13.060141420708385, 42.825897477017485], [13.071817016195462, 42.83398853391918], [13.084182821964454, 42.8414972670413], [13.097185885736621, 42.84839152283585], [13.110770526396626, 42.85464177904108], [13.124878572427612, 42.860221271100386], [13.139449611010566, 42.86510610677217], [13.15442124672129, 42.86927536844016], [13.169729368717183, 42.872711202685814], [13.185308425269712, 42.87539889673942], [13.20109170446698, 42.877326941482416], [13.217011619884373, 42.878487080731205], [13.233, 42.878874346591424], [13.248988380115629, 42.878487080731205], [13.26490829553302, 42.877326941482416], [13.28069157473029, 42.87539889673942], [13.296270631282818, 42.872711202685814], [13.311578753278711, 42.86927536844016], [13.326550388989435, 42.86510610677217], [13.34112142757239, 42.860221271100386], [13.355229473603375, 42.85464177904108], [13.36881411426338, 42.84839152283585], [13.381817178035547, 42.8414972670413], [13.394182983804539, 42.83398853391918], [13.405858579291616, 42.825897477017485], [13.416793967804436, 42.81725874348401], [13.426942322330552, 42.80810932570201], [13.436260186057883, 42.798488402883066], [13.444707658463443, 42.78843717329571], [13.45224856617351, 42.77799867784814], [13.458850617863572, 42.767217615780396], [13.464485542534723, 42.75614015325541], [13.469129210574433, 42.74481372566834], [13.47276173708325, 42.733286834520975], [13.475367567024982, 42.72160883973087], [13.476935541835768, 42.70982974826454], [13.477458947206749, 42.698]]]}}, {"type": "Feature", "properties": {"id": "AUG2016_I9_10", "event": "2016-08-24_01:36_Amatrice/Accumoli (schematic)", "label": "I 9–10 (distruttivo)", "intensity": 9.5, "inner_km": 10, "outer_km": 20, "scale": "EMS-98 (schematic)"}, "geometry": {"type": "Polygon", "coordinates": [[[13.477458947206749, 42.698], [13.476935541835768, 42.70982974826454], [13.475367567024982, 42.72160883973087], [13.47276173708325, 42.733286834520975], [13.469129210574433, 42.74481372566834], [13.464485542534723, 42.75614015325541], [13.458850617863572, 42.767217615780396], [13.45224856617351, 42.77799867784814], [13.444707658463443, 42.78843717329571], [13.436260186057883, 42.798488402883066], [13.426942322330552, 42.80810932570201], [13.416793967804436, 42.81725874348401], [13.405858579291616, 42.825897477017485], [13.394182983804539, 42.83398853391918], [13.381817178035547, 42.8414972670413], [13.36881411426338, 42.84839152283585], [13.355229473603375, 42.85464177904108], [13.34112142757239, 42.860221271100386], [13.326550388989435, 42.86510610677217], [13.311578753278711, 42.86927536844016], [13.296270631282818, 42.872711202685814], [13.28069157473029, 42.87539889673942], [13.26490829553302, 42.877326941482416], [13.248988380115629, 42.878487080731205], [13.233, 42.878874346591424], [13.217011619884373, 42.878487080731205], [13.20109170446698, 42.877326941482416], [13.185308425269712, 42.87539889673942], [13.169729368717183, 42.872711202685814], [13.15442124672129, 42.86927536844016], [13.139449611010566, 42.86510610677217], [13.124878572427612, 42.860221271100386], [13.110770526396626, 42.85464177904108], [13.097185885736621, 42.84839152283585], [13.084182821964454, 42.8414972670413], [13.071817016195462, 42.83398853391918], [13.060141420708385, 42.825897477017485], [13.049206032195565, 42.81725874348401], [13.03905767766945, 42.80810932570201], [13.029739813942118, 42.798488402883066], [13.021292341536558, 42.78843717329571], [13.01375143382649, 42.77799867784814], [13.00714938213643, 42.767217615780396], [13.001514457465278, 42.75614015325541], [12.996870789425568, 42.74481372566834], [12.993238262916751, 42.733286834520975], [12.99063243297502, 42.72160883973087], [12.989064458164233, 42.70982974826454], [12.988541052793252, 42.698], [12.989064458164233, 42.68617025173546], [12.99063243297502, 42.67439116026913], [12.993238262916751, 42.662713165479026], [12.996870789425568, 42.651186274331664], [13.001514457465278, 42.63985984674459], [13.00714938213643, 42.628782384219605], [13.01375143382649, 42.61800132215186], [13.021292341536558, 42.60756282670429], [13.029739813942118, 42.597511597116934], [13.03905767766945, 42.58789067429799], [13.049206032195565, 42.57874125651599], [13.060141420708385, 42.570102522982516], [13.071817016195462, 42.56201146608082], [13.084182821964454, 42.5545027329587], [13.097185885736621, 42.547608477164154], [13.110770526396626, 42.54135822095892], [13.124878572427612, 42.535778728899615], [13.139449611010566, 42.530893893227834], [13.15442124672129, 42.526724631559844], [13.169729368717183, 42.52328879731419], [13.185308425269712, 42.52060110326058], [13.20109170446698, 42.518673058517585], [13.217011619884373, 42.517512919268796], [13.233, 42.51712565340858], [13.248988380115629, 42.517512919268796], [13.26490829553302, 42.518673058517585], [13.28069157473029, 42.52060110326058], [13.296270631282818, 42.52328879731419], [13.311578753278711, 42.526724631559844], [13.326550388989435, 42.530893893227834], [13.34112142757239, 42.535778728899615], [13.355229473603375, 42.54135822095892], [13.36881411426338, 42.547608477164154], [13.381817178035547, 42.5545027329587], [13.394182983804539, 42.56201146608082], [13.405858579291616, 42.570102522982516], [13.416793967804436, 42.57874125651599], [13.426942322330552, 42.58789067429799], [13.436260186057883, 42.597511597116934], [13.444707658463443, 42.60756282670429], [13.45224856617351, 42.61800132215186], [13.458850617863572, 42.628782384219605], [13.464485542534723, 42.63985984674459], [13.469129210574433, 42.651186274331664], [13.47276173708325, 42.662713165479026], [13.475367567024982, 42.67439116026913], [13.476935541835768, 42.68617025173546], [13.477458947206749, 42.698]], [[13.355229473603375, 42.698], [13.354967770917884, 42.692085125867735], [13.354183783512491, 42.686195580134566], [13.352880868541625, 42.68035658273951], [13.351064605287217, 42.674593137165836], [13.348742771267363, 42.668929923372296], [13.345925308931786, 42.6633911921098], [13.342624283086757, 42.65800066107593], [13.338853829231722, 42.652781413352145], [13.334630093028942, 42.64775579855847], [13.329971161165277, 42.642945337148994], [13.324896983902217, 42.638370628257995], [13.319429289645809, 42.63405126149126], [13.313591491902269, 42.63000573304041], [13.307408589017774, 42.62625136647935], [13.30090705713169, 42.62280423858208], [13.294114736801687, 42.61967911047946], [13.287060713786195, 42.61688936444981], [13.279775194494718, 42.61444694661392], [13.272289376639355, 42.61236231577992], [13.26463531564141, 42.610644398657094], [13.256845787365144, 42.60930055163029], [13.24895414776651, 42.60833652925879], [13.240994190057814, 42.6077564596344], [13.233, 42.60756282670429], [13.225005809942187, 42.6077564596344], [13.217045852233491, 42.60833652925879], [13.209154212634857, 42.60930055163029], [13.201364684358591, 42.610644398657094], [13.193710623360644, 42.61236231577992], [13.186224805505283, 42.61444694661392], [13.178939286213806, 42.61688936444981], [13.171885263198314, 42.61967911047946], [13.165092942868311, 42.62280423858208], [13.158591410982227, 42.62625136647935], [13.152408508097732, 42.63000573304041], [13.146570710354192, 42.63405126149126], [13.141103016097784, 42.638370628257995], [13.136028838834724, 42.642945337148994], [13.13136990697106, 42.64775579855847], [13.12714617076828, 42.652781413352145], [13.123375716913245, 42.65800066107593], [13.120074691068215, 42.6633911921098], [13.117257228732639, 42.668929923372296], [13.114935394712784, 42.674593137165836], [13.113119131458376, 42.68035658273951], [13.11181621648751, 42.686195580134566], [13.111032229082117, 42.692085125867735], [13.110770526396626, 42.698], [13.111032229082117, 42.703914874132266], [13.11181621648751, 42.709804419865435], [13.113119131458376, 42.71564341726049], [13.114935394712784, 42.721406862834165], [13.117257228732639, 42.727070076627705], [13.120074691068215, 42.7326088078902], [13.123375716913245, 42.73799933892407], [13.12714617076828, 42.743218586647856], [13.13136990697106, 42.74824420144153], [13.136028838834724, 42.75305466285101], [13.141103016097784, 42.757629371742006], [13.146570710354192, 42.76194873850874], [13.152408508097732, 42.76599426695959], [13.158591410982227, 42.76974863352065], [13.165092942868311, 42.773195761417924], [13.171885263198314, 42.77632088952054], [13.178939286213806, 42.77911063555019], [13.186224805505283, 42.781553053386084], [13.193710623360646, 42.78363768422008], [13.201364684358591, 42.78535560134291], [13.209154212634857, 42.78669944836971], [13.217045852233491, 42.78766347074121], [13.225005809942187, 42.7882435403656], [13.233, 42.78843717329571], [13.240994190057814, 42.7882435403656], [13.24895414776651, 42.78766347074121], [13.256845787365144, 42.78669944836971], [13.26463531564141, 42.78535560134291], [13.272289376639357, 42.78363768422008], [13.279775194494718, 42.781553053386084], [13.287060713786195, 42.77911063555019], [13.294114736801687, 42.77632088952054], [13.30090705713169, 42.773195761417924], [13.307408589017774, 42.76974863352065], [13.313591491902269, 42.76599426695959], [13.319429289645809, 42.76194873850874], [13.324896983902217, 42.757629371742006], [13.329971161165277, 42.75305466285101], [13.334630093028942, 42.74824420144153], [13.338853829231722, 42.743218586647856], [13.342624283086757, 42.73799933892407], [13.345925308931786, 42.7326088078902], [13.348742771267363, 42.727070076627705], [13.351064605287217, 42.721406862834165], [13.352880868541625, 42.71564341726049], [13.354183783512491, 42.709804419865435], [13.354967770917884, 42.703914874132266], [13.355229473603375, 42.698]]]}}, {"type": "Feature", "properties": {"id": "AUG2016_I10p", "event": "2016-08-24_01:36_Amatrice/Accumoli (schematic)", "label": "I ≥10 (molto distruttivo)", "intensity": 10.0, "inner_km": 0, "outer_km": 10, "scale": "EMS-98 (schematic)"}, "geometry": {"type": "Polygon", "coordinates": [[[13.355229473603375, 42.698], [13.354967770917884, 42.703914874132266], [13.354183783512491, 42.709804419865435], [13.352880868541625, 42.71564341726049], [13.351064605287217, 42.721406862834165], [13.348742771267363, 42.727070076627705], [13.345925308931786, 42.7326088078902], [13.342624283086757, 42.73799933892407], [13.338853829231722, 42.743218586647856], [13.334630093028942, 42.74824420144153], [13.329971161165277, 42.75305466285101], [13.324896983902217, 42.757629371742006], [13.319429289645809, 42.76194873850874], [13.313591491902269, 42.76599426695959], [13.307408589017774, 42.76974863352065], [13.30090705713169, 42.773195761417924], [13.294114736801687, 42.77632088952054], [13.287060713786195, 42.77911063555019], [13.279775194494718, 42.781553053386084], [13.272289376639357, 42.78363768422008], [13.26463531564141, 42.78535560134291], [13.256845787365144, 42.78669944836971], [13.24895414776651, 42.78766347074121], [13.240994190057814, 42.7882435403656], [13.233, 42.78843717329571], [13.225005809942187, 42.7882435403656], [13.217045852233491, 42.78766347074121], [13.209154212634857, 42.78669944836971], [13.201364684358591, 42.78535560134291], [13.193710623360646, 42.78363768422008], [13.186224805505283, 42.781553053386084], [13.178939286213806, 42.77911063555019], [13.171885263198314, 42.77632088952054], [13.165092942868311, 42.773195761417924], [13.158591410982227, 42.76974863352065], [13.152408508097732, 42.76599426695959], [13.146570710354192, 42.76194873850874], [13.141103016097784, 42.757629371742006], [13.136028838834724, 42.75305466285101], [13.13136990697106, 42.74824420144153], [13.12714617076828, 42.743218586647856], [13.123375716913245, 42.73799933892407], [13.120074691068215, 42.7326088078902], [13.117257228732639, 42.727070076627705], [13.114935394712784, 42.721406862834165], [13.113119131458376, 42.71564341726049], [13.11181621648751, 42.709804419865435], [13.111032229082117, 42.703914874132266], [13.110770526396626, 42.698], [13.111032229082117, 42.692085125867735], [13.11181621648751, 42.686195580134566], [13.113119131458376, 42.68035658273951], [13.114935394712784, 42.674593137165836], [13.117257228732639, 42.668929923372296], [13.120074691068215, 42.6633911921098], [13.123375716913245, 42.65800066107593], [13.12714617076828, 42.652781413352145], [13.13136990697106, 42.64775579855847], [13.136028838834724, 42.642945337148994], [13.141103016097784, 42.638370628257995], [13.146570710354192, 42.63405126149126], [13.152408508097732, 42.63000573304041], [13.158591410982227, 42.62625136647935], [13.165092942868311, 42.62280423858208], [13.171885263198314, 42.61967911047946], [13.178939286213806, 42.61688936444981], [13.186224805505283, 42.61444694661392], [13.193710623360644, 42.61236231577992], [13.201364684358591, 42.610644398657094], [13.209154212634857, 42.60930055163029], [13.217045852233491, 42.60833652925879], [13.225005809942187, 42.6077564596344], [13.233, 42.60756282670429], [13.240994190057814, 42.6077564596344], [13.24895414776651, 42.60833652925879], [13.256845787365144, 42.60930055163029], [13.26463531564141, 42.610644398657094], [13.272289376639355, 42.61236231577992], [13.279775194494718, 42.61444694661392], [13.287060713786195, 42.61688936444981], [13.294114736801687, 42.61967911047946], [13.30090705713169, 42.62280423858208], [13.307408589017774, 42.62625136647935], [13.313591491902269, 42.63000573304041], [13.319429289645809, 42.63405126149126], [13.324896983902217, 42.638370628257995], [13.329971161165277, 42.642945337148994], [13.334630093028942, 42.64775579855847], [13.338853829231722, 42.652781413352145], [13.342624283086757, 42.65800066107593], [13.345925308931786, 42.6633911921098], [13.348742771267363, 42.668929923372296], [13.351064605287217, 42.674593137165836], [13.352880868541625, 42.68035658273951], [13.354183783512491, 42.686195580134566], [13.354967770917884, 42.692085125867735], [13.355229473603375, 42.698]]]}}]}